[
  {
    "status": "waiting",
    "startingPoint": {
      "coordinates": [
        73,
        56
      ],
      "line1": "Address 1",
      "city": "City 1",
      "postalCode": "10000",
      "primary": true,
      "state": "state"
    },
    "destinationPoint": {
      "coordinates": [
        -3,
        69
      ],
      "line1": "Address 1",
      "city": "City 2",
      "postalCode": "20000",
      "primary": false,
      "state": "state"
    }
  },
  {
    "status": "waiting",
    "startingPoint": {
      "coordinates": [
        73,
        56
      ],
      "line1": "Address 1",
      "city": "City 1",
      "postalCode": "10000",
      "primary": true,
      "state": "state"
    },
    "destinationPoint": {
      "coordinates": [
        -3,
        69
      ],
      "line1": "Address 1",
      "city": "City 2",
      "postalCode": "20000",
      "primary": false,
      "state": "state"
    }
  },
  {
    "status": "waiting",
    "startingPoint": {
      "coordinates": [
        73,
        56
      ],
      "line1": "Address 1",
      "city": "City 1",
      "postalCode": "10000",
      "primary": true,
      "state": "state"
    },
    "destinationPoint": {
      "coordinates": [
        -3,
        69
      ],
      "line1": "Address 1",
      "city": "City 2",
      "postalCode": "20000",
      "primary": false,
      "state": "state"
    }
  },
  {
    "status": "waiting",
    "startingPoint": {
      "coordinates": [
        73,
        56
      ],
      "line1": "Address 1",
      "city": "City 1",
      "postalCode": "10000",
      "primary": true,
      "state": "state"
    },
    "destinationPoint": {
      "coordinates": [
        -3,
        69
      ],
      "line1": "Address 1",
      "city": "City 2",
      "postalCode": "20000",
      "primary": false,
      "state": "state"
    }
  },
  {
    "status": "waiting",
    "startingPoint": {
      "coordinates": [
        73,
        56
      ],
      "line1": "Address 1",
      "city": "City 1",
      "postalCode": "10000",
      "primary": true,
      "state": "state"
    },
    "destinationPoint": {
      "coordinates": [
        -3,
        69
      ],
      "line1": "Address 1",
      "city": "City 2",
      "postalCode": "20000",
      "primary": false,
      "state": "state"
    }
  },
  {
    "status": "waiting",
    "startingPoint": {
      "coordinates": [
        73,
        56
      ],
      "line1": "Address 1",
      "city": "City 1",
      "postalCode": "10000",
      "primary": true,
      "state": "state"
    },
    "destinationPoint": {
      "coordinates": [
        -3,
        69
      ],
      "line1": "Address 1",
      "city": "City 2",
      "postalCode": "20000",
      "primary": false,
      "state": "state"
    }
  },
  {
    "status": "waiting",
    "startingPoint": {
      "coordinates": [
        73,
        56
      ],
      "line1": "Address 1",
      "city": "City 1",
      "postalCode": "10000",
      "primary": true,
      "state": "state"
    },
    "destinationPoint": {
      "coordinates": [
        -3,
        69
      ],
      "line1": "Address 1",
      "city": "City 2",
      "postalCode": "20000",
      "primary": false,
      "state": "state"
    }
  },
  {
    "status": "waiting",
    "startingPoint": {
      "coordinates": [
        73,
        56
      ],
      "line1": "Address 1",
      "city": "City 1",
      "postalCode": "10000",
      "primary": true,
      "state": "state"
    },
    "destinationPoint": {
      "coordinates": [
        -3,
        69
      ],
      "line1": "Address 1",
      "city": "City 2",
      "postalCode": "20000",
      "primary": false,
      "state": "state"
    }
  },
  {
    "status": "waiting",
    "startingPoint": {
      "coordinates": [
        73,
        56
      ],
      "line1": "Address 1",
      "city": "City 1",
      "postalCode": "10000",
      "primary": true,
      "state": "state"
    },
    "destinationPoint": {
      "coordinates": [
        -3,
        69
      ],
      "line1": "Address 1",
      "city": "City 2",
      "postalCode": "20000",
      "primary": false,
      "state": "state"
    }
  },
  {
    "status": "waiting",
    "startingPoint": {
      "coordinates": [
        73,
        56
      ],
      "line1": "Address 1",
      "city": "City 1",
      "postalCode": "10000",
      "primary": true,
      "state": "state"
    },
    "destinationPoint": {
      "coordinates": [
        -3,
        69
      ],
      "line1": "Address 1",
      "city": "City 2",
      "postalCode": "20000",
      "primary": false,
      "state": "state"
    }
  },
  {
    "status": "waiting",
    "startingPoint": {
      "coordinates": [
        73,
        56
      ],
      "line1": "Address 1",
      "city": "City 1",
      "postalCode": "10000",
      "primary": true,
      "state": "state"
    },
    "destinationPoint": {
      "coordinates": [
        -3,
        69
      ],
      "line1": "Address 1",
      "city": "City 2",
      "postalCode": "20000",
      "primary": false,
      "state": "state"
    }
  },
  {
    "status": "waiting",
    "startingPoint": {
      "coordinates": [
        73,
        56
      ],
      "line1": "Address 1",
      "city": "City 1",
      "postalCode": "10000",
      "primary": true,
      "state": "state"
    },
    "destinationPoint": {
      "coordinates": [
        -3,
        69
      ],
      "line1": "Address 1",
      "city": "City 2",
      "postalCode": "20000",
      "primary": false,
      "state": "state"
    }
  },
  {
    "status": "waiting",
    "startingPoint": {
      "coordinates": [
        73,
        56
      ],
      "line1": "Address 1",
      "city": "City 1",
      "postalCode": "10000",
      "primary": true,
      "state": "state"
    },
    "destinationPoint": {
      "coordinates": [
        -3,
        69
      ],
      "line1": "Address 1",
      "city": "City 2",
      "postalCode": "20000",
      "primary": false,
      "state": "state"
    }
  },
  {
    "status": "waiting",
    "startingPoint": {
      "coordinates": [
        73,
        56
      ],
      "line1": "Address 1",
      "city": "City 1",
      "postalCode": "10000",
      "primary": true,
      "state": "state"
    },
    "destinationPoint": {
      "coordinates": [
        -3,
        69
      ],
      "line1": "Address 1",
      "city": "City 2",
      "postalCode": "20000",
      "primary": false,
      "state": "state"
    }
  },
  {
    "status": "waiting",
    "startingPoint": {
      "coordinates": [
        73,
        56
      ],
      "line1": "Address 1",
      "city": "City 1",
      "postalCode": "10000",
      "primary": true,
      "state": "state"
    },
    "destinationPoint": {
      "coordinates": [
        -3,
        69
      ],
      "line1": "Address 1",
      "city": "City 2",
      "postalCode": "20000",
      "primary": false,
      "state": "state"
    }
  },
  {
    "status": "waiting",
    "startingPoint": {
      "coordinates": [
        73,
        56
      ],
      "line1": "Address 1",
      "city": "City 1",
      "postalCode": "10000",
      "primary": true,
      "state": "state"
    },
    "destinationPoint": {
      "coordinates": [
        -3,
        69
      ],
      "line1": "Address 1",
      "city": "City 2",
      "postalCode": "20000",
      "primary": false,
      "state": "state"
    }
  },
  {
    "status": "waiting",
    "startingPoint": {
      "coordinates": [
        73,
        56
      ],
      "line1": "Address 1",
      "city": "City 1",
      "postalCode": "10000",
      "primary": true,
      "state": "state"
    },
    "destinationPoint": {
      "coordinates": [
        -3,
        69
      ],
      "line1": "Address 1",
      "city": "City 2",
      "postalCode": "20000",
      "primary": false,
      "state": "state"
    }
  },
  {
    "status": "waiting",
    "startingPoint": {
      "coordinates": [
        73,
        56
      ],
      "line1": "Address 1",
      "city": "City 1",
      "postalCode": "10000",
      "primary": true,
      "state": "state"
    },
    "destinationPoint": {
      "coordinates": [
        -3,
        69
      ],
      "line1": "Address 1",
      "city": "City 2",
      "postalCode": "20000",
      "primary": false,
      "state": "state"
    }
  },
  {
    "status": "waiting",
    "startingPoint": {
      "coordinates": [
        73,
        56
      ],
      "line1": "Address 1",
      "city": "City 1",
      "postalCode": "10000",
      "primary": true,
      "state": "state"
    },
    "destinationPoint": {
      "coordinates": [
        -3,
        69
      ],
      "line1": "Address 1",
      "city": "City 2",
      "postalCode": "20000",
      "primary": false,
      "state": "state"
    }
  },
  {
    "status": "waiting",
    "startingPoint": {
      "coordinates": [
        73,
        56
      ],
      "line1": "Address 1",
      "city": "City 1",
      "postalCode": "10000",
      "primary": true,
      "state": "state"
    },
    "destinationPoint": {
      "coordinates": [
        -3,
        69
      ],
      "line1": "Address 1",
      "city": "City 2",
      "postalCode": "20000",
      "primary": false,
      "state": "state"
    }
  },
  {
    "status": "waiting",
    "startingPoint": {
      "coordinates": [
        73,
        56
      ],
      "line1": "Address 1",
      "city": "City 1",
      "postalCode": "10000",
      "primary": true,
      "state": "state"
    },
    "destinationPoint": {
      "coordinates": [
        -3,
        69
      ],
      "line1": "Address 1",
      "city": "City 2",
      "postalCode": "20000",
      "primary": false,
      "state": "state"
    }
  },
  {
    "status": "waiting",
    "startingPoint": {
      "coordinates": [
        73,
        56
      ],
      "line1": "Address 1",
      "city": "City 1",
      "postalCode": "10000",
      "primary": true,
      "state": "state"
    },
    "destinationPoint": {
      "coordinates": [
        -3,
        69
      ],
      "line1": "Address 1",
      "city": "City 2",
      "postalCode": "20000",
      "primary": false,
      "state": "state"
    }
  },
  {
    "status": "waiting",
    "startingPoint": {
      "coordinates": [
        73,
        56
      ],
      "line1": "Address 1",
      "city": "City 1",
      "postalCode": "10000",
      "primary": true,
      "state": "state"
    },
    "destinationPoint": {
      "coordinates": [
        -3,
        69
      ],
      "line1": "Address 1",
      "city": "City 2",
      "postalCode": "20000",
      "primary": false,
      "state": "state"
    }
  },
  {
    "status": "waiting",
    "startingPoint": {
      "coordinates": [
        73,
        56
      ],
      "line1": "Address 1",
      "city": "City 1",
      "postalCode": "10000",
      "primary": true,
      "state": "state"
    },
    "destinationPoint": {
      "coordinates": [
        -3,
        69
      ],
      "line1": "Address 1",
      "city": "City 2",
      "postalCode": "20000",
      "primary": false,
      "state": "state"
    }
  },
  {
    "status": "waiting",
    "startingPoint": {
      "coordinates": [
        73,
        56
      ],
      "line1": "Address 1",
      "city": "City 1",
      "postalCode": "10000",
      "primary": true,
      "state": "state"
    },
    "destinationPoint": {
      "coordinates": [
        -3,
        69
      ],
      "line1": "Address 1",
      "city": "City 2",
      "postalCode": "20000",
      "primary": false,
      "state": "state"
    }
  },
  {
    "status": "waiting",
    "startingPoint": {
      "coordinates": [
        73,
        56
      ],
      "line1": "Address 1",
      "city": "City 1",
      "postalCode": "10000",
      "primary": true,
      "state": "state"
    },
    "destinationPoint": {
      "coordinates": [
        -3,
        69
      ],
      "line1": "Address 1",
      "city": "City 2",
      "postalCode": "20000",
      "primary": false,
      "state": "state"
    }
  },
  {
    "status": "waiting",
    "startingPoint": {
      "coordinates": [
        73,
        56
      ],
      "line1": "Address 1",
      "city": "City 1",
      "postalCode": "10000",
      "primary": true,
      "state": "state"
    },
    "destinationPoint": {
      "coordinates": [
        -3,
        69
      ],
      "line1": "Address 1",
      "city": "City 2",
      "postalCode": "20000",
      "primary": false,
      "state": "state"
    }
  },
  {
    "status": "waiting",
    "startingPoint": {
      "coordinates": [
        73,
        56
      ],
      "line1": "Address 1",
      "city": "City 1",
      "postalCode": "10000",
      "primary": true,
      "state": "state"
    },
    "destinationPoint": {
      "coordinates": [
        -3,
        69
      ],
      "line1": "Address 1",
      "city": "City 2",
      "postalCode": "20000",
      "primary": false,
      "state": "state"
    }
  },
  {
    "status": "waiting",
    "startingPoint": {
      "coordinates": [
        73,
        56
      ],
      "line1": "Address 1",
      "city": "City 1",
      "postalCode": "10000",
      "primary": true,
      "state": "state"
    },
    "destinationPoint": {
      "coordinates": [
        -3,
        69
      ],
      "line1": "Address 1",
      "city": "City 2",
      "postalCode": "20000",
      "primary": false,
      "state": "state"
    }
  },
  {
    "status": "waiting",
    "startingPoint": {
      "coordinates": [
        73,
        56
      ],
      "line1": "Address 1",
      "city": "City 1",
      "postalCode": "10000",
      "primary": true,
      "state": "state"
    },
    "destinationPoint": {
      "coordinates": [
        -3,
        69
      ],
      "line1": "Address 1",
      "city": "City 2",
      "postalCode": "20000",
      "primary": false,
      "state": "state"
    }
  },
  {
    "status": "waiting",
    "startingPoint": {
      "coordinates": [
        73,
        56
      ],
      "line1": "Address 1",
      "city": "City 1",
      "postalCode": "10000",
      "primary": true,
      "state": "state"
    },
    "destinationPoint": {
      "coordinates": [
        -3,
        69
      ],
      "line1": "Address 1",
      "city": "City 2",
      "postalCode": "20000",
      "primary": false,
      "state": "state"
    }
  },
  {
    "status": "waiting",
    "startingPoint": {
      "coordinates": [
        73,
        56
      ],
      "line1": "Address 1",
      "city": "City 1",
      "postalCode": "10000",
      "primary": true,
      "state": "state"
    },
    "destinationPoint": {
      "coordinates": [
        -3,
        69
      ],
      "line1": "Address 1",
      "city": "City 2",
      "postalCode": "20000",
      "primary": false,
      "state": "state"
    }
  },
  {
    "status": "waiting",
    "startingPoint": {
      "coordinates": [
        73,
        56
      ],
      "line1": "Address 1",
      "city": "City 1",
      "postalCode": "10000",
      "primary": true,
      "state": "state"
    },
    "destinationPoint": {
      "coordinates": [
        -3,
        69
      ],
      "line1": "Address 1",
      "city": "City 2",
      "postalCode": "20000",
      "primary": false,
      "state": "state"
    }
  },
  {
    "status": "waiting",
    "startingPoint": {
      "coordinates": [
        73,
        56
      ],
      "line1": "Address 1",
      "city": "City 1",
      "postalCode": "10000",
      "primary": true,
      "state": "state"
    },
    "destinationPoint": {
      "coordinates": [
        -3,
        69
      ],
      "line1": "Address 1",
      "city": "City 2",
      "postalCode": "20000",
      "primary": false,
      "state": "state"
    }
  },
  {
    "status": "waiting",
    "startingPoint": {
      "coordinates": [
        73,
        56
      ],
      "line1": "Address 1",
      "city": "City 1",
      "postalCode": "10000",
      "primary": true,
      "state": "state"
    },
    "destinationPoint": {
      "coordinates": [
        -3,
        69
      ],
      "line1": "Address 1",
      "city": "City 2",
      "postalCode": "20000",
      "primary": false,
      "state": "state"
    }
  },
  {
    "status": "waiting",
    "startingPoint": {
      "coordinates": [
        73,
        56
      ],
      "line1": "Address 1",
      "city": "City 1",
      "postalCode": "10000",
      "primary": true,
      "state": "state"
    },
    "destinationPoint": {
      "coordinates": [
        -3,
        69
      ],
      "line1": "Address 1",
      "city": "City 2",
      "postalCode": "20000",
      "primary": false,
      "state": "state"
    }
  },
  {
    "status": "waiting",
    "startingPoint": {
      "coordinates": [
        73,
        56
      ],
      "line1": "Address 1",
      "city": "City 1",
      "postalCode": "10000",
      "primary": true,
      "state": "state"
    },
    "destinationPoint": {
      "coordinates": [
        -3,
        69
      ],
      "line1": "Address 1",
      "city": "City 2",
      "postalCode": "20000",
      "primary": false,
      "state": "state"
    }
  },
  {
    "status": "waiting",
    "startingPoint": {
      "coordinates": [
        73,
        56
      ],
      "line1": "Address 1",
      "city": "City 1",
      "postalCode": "10000",
      "primary": true,
      "state": "state"
    },
    "destinationPoint": {
      "coordinates": [
        -3,
        69
      ],
      "line1": "Address 1",
      "city": "City 2",
      "postalCode": "20000",
      "primary": false,
      "state": "state"
    }
  },
  {
    "status": "completed",
    "startingPoint": {
      "coordinates": [
        73,
        56
      ],
      "line1": "Address 1",
      "city": "City 1",
      "postalCode": "10000",
      "primary": true,
      "state": "state"
    },
    "destinationPoint": {
      "coordinates": [
        -3,
        69
      ],
      "line1": "Address 1",
      "city": "City 2",
      "postalCode": "20000",
      "primary": false,
      "state": "state"
    },
    "startedAt": "2016-11-01T02:08:01",
    "completedAt": "2016-11-01T05:53:23"
  },
  {
    "status": "completed",
    "startingPoint": {
      "coordinates": [
        73,
        56
      ],
      "line1": "Address 1",
      "city": "City 1",
      "postalCode": "10000",
      "primary": true,
      "state": "state"
    },
    "destinationPoint": {
      "coordinates": [
        -3,
        69
      ],
      "line1": "Address 1",
      "city": "City 2",
      "postalCode": "20000",
      "primary": false,
      "state": "state"
    },
    "startedAt": "2016-11-01T02:08:01",
    "completedAt": "2016-11-01T05:53:23"
  },
  {
    "status": "completed",
    "startingPoint": {
      "coordinates": [
        73,
        56
      ],
      "line1": "Address 1",
      "city": "City 1",
      "postalCode": "10000",
      "primary": true,
      "state": "state"
    },
    "destinationPoint": {
      "coordinates": [
        -3,
        69
      ],
      "line1": "Address 1",
      "city": "City 2",
      "postalCode": "20000",
      "primary": false,
      "state": "state"
    },
    "startedAt": "2016-11-01T02:08:01",
    "completedAt": "2016-11-01T05:53:23"
  },
  {
    "status": "completed",
    "startingPoint": {
      "coordinates": [
        73,
        56
      ],
      "line1": "Address 1",
      "city": "City 1",
      "postalCode": "10000",
      "primary": true,
      "state": "state"
    },
    "destinationPoint": {
      "coordinates": [
        -3,
        69
      ],
      "line1": "Address 1",
      "city": "City 2",
      "postalCode": "20000",
      "primary": false,
      "state": "state"
    },
    "startedAt": "2016-11-01T02:08:01",
    "completedAt": "2016-11-01T05:53:23"
  },
  {
    "status": "completed",
    "startingPoint": {
      "coordinates": [
        73,
        56
      ],
      "line1": "Address 1",
      "city": "City 1",
      "postalCode": "10000",
      "primary": true,
      "state": "state"
    },
    "destinationPoint": {
      "coordinates": [
        -3,
        69
      ],
      "line1": "Address 1",
      "city": "City 2",
      "postalCode": "20000",
      "primary": false,
      "state": "state"
    },
    "startedAt": "2016-11-01T02:08:01",
    "completedAt": "2016-11-01T05:53:23"
  },
  {
    "status": "completed",
    "startingPoint": {
      "coordinates": [
        73,
        56
      ],
      "line1": "Address 1",
      "city": "City 1",
      "postalCode": "10000",
      "primary": true,
      "state": "state"
    },
    "destinationPoint": {
      "coordinates": [
        -3,
        69
      ],
      "line1": "Address 1",
      "city": "City 2",
      "postalCode": "20000",
      "primary": false,
      "state": "state"
    },
    "startedAt": "2016-11-01T02:08:01",
    "completedAt": "2016-11-01T05:53:23"
  },
  {
    "status": "completed",
    "startingPoint": {
      "coordinates": [
        73,
        56
      ],
      "line1": "Address 1",
      "city": "City 1",
      "postalCode": "10000",
      "primary": true,
      "state": "state"
    },
    "destinationPoint": {
      "coordinates": [
        -3,
        69
      ],
      "line1": "Address 1",
      "city": "City 2",
      "postalCode": "20000",
      "primary": false,
      "state": "state"
    },
    "startedAt": "2016-11-01T02:08:01",
    "completedAt": "2016-11-01T05:53:23"
  },
  {
    "status": "completed",
    "startingPoint": {
      "coordinates": [
        73,
        56
      ],
      "line1": "Address 1",
      "city": "City 1",
      "postalCode": "10000",
      "primary": true,
      "state": "state"
    },
    "destinationPoint": {
      "coordinates": [
        -3,
        69
      ],
      "line1": "Address 1",
      "city": "City 2",
      "postalCode": "20000",
      "primary": false,
      "state": "state"
    },
    "startedAt": "2016-11-01T02:08:01",
    "completedAt": "2016-11-01T05:53:23"
  },
  {
    "status": "completed",
    "startingPoint": {
      "coordinates": [
        73,
        56
      ],
      "line1": "Address 1",
      "city": "City 1",
      "postalCode": "10000",
      "primary": true,
      "state": "state"
    },
    "destinationPoint": {
      "coordinates": [
        -3,
        69
      ],
      "line1": "Address 1",
      "city": "City 2",
      "postalCode": "20000",
      "primary": false,
      "state": "state"
    },
    "startedAt": "2016-11-01T02:08:01",
    "completedAt": "2016-11-01T05:53:23"
  },
  {
    "status": "completed",
    "startingPoint": {
      "coordinates": [
        73,
        56
      ],
      "line1": "Address 1",
      "city": "City 1",
      "postalCode": "10000",
      "primary": true,
      "state": "state"
    },
    "destinationPoint": {
      "coordinates": [
        -3,
        69
      ],
      "line1": "Address 1",
      "city": "City 2",
      "postalCode": "20000",
      "primary": false,
      "state": "state"
    },
    "startedAt": "2016-11-01T02:08:01",
    "completedAt": "2016-11-01T05:53:23"
  },
  {
    "status": "completed",
    "startingPoint": {
      "coordinates": [
        73,
        56
      ],
      "line1": "Address 1",
      "city": "City 1",
      "postalCode": "10000",
      "primary": true,
      "state": "state"
    },
    "destinationPoint": {
      "coordinates": [
        -3,
        69
      ],
      "line1": "Address 1",
      "city": "City 2",
      "postalCode": "20000",
      "primary": false,
      "state": "state"
    },
    "startedAt": "2016-11-01T02:08:01",
    "completedAt": "2016-11-01T05:53:23"
  },
  {
    "status": "completed",
    "startingPoint": {
      "coordinates": [
        73,
        56
      ],
      "line1": "Address 1",
      "city": "City 1",
      "postalCode": "10000",
      "primary": true,
      "state": "state"
    },
    "destinationPoint": {
      "coordinates": [
        -3,
        69
      ],
      "line1": "Address 1",
      "city": "City 2",
      "postalCode": "20000",
      "primary": false,
      "state": "state"
    },
    "startedAt": "2016-11-01T02:08:01",
    "completedAt": "2016-11-01T05:53:23"
  },
  {
    "status": "completed",
    "startingPoint": {
      "coordinates": [
        73,
        56
      ],
      "line1": "Address 1",
      "city": "City 1",
      "postalCode": "10000",
      "primary": true,
      "state": "state"
    },
    "destinationPoint": {
      "coordinates": [
        -3,
        69
      ],
      "line1": "Address 1",
      "city": "City 2",
      "postalCode": "20000",
      "primary": false,
      "state": "state"
    },
    "startedAt": "2016-11-01T02:08:01",
    "completedAt": "2016-11-01T05:53:23"
  },
  {
    "status": "completed",
    "startingPoint": {
      "coordinates": [
        73,
        56
      ],
      "line1": "Address 1",
      "city": "City 1",
      "postalCode": "10000",
      "primary": true,
      "state": "state"
    },
    "destinationPoint": {
      "coordinates": [
        -3,
        69
      ],
      "line1": "Address 1",
      "city": "City 2",
      "postalCode": "20000",
      "primary": false,
      "state": "state"
    },
    "startedAt": "2016-11-01T02:08:01",
    "completedAt": "2016-11-01T05:53:23"
  },
  {
    "status": "completed",
    "startingPoint": {
      "coordinates": [
        73,
        56
      ],
      "line1": "Address 1",
      "city": "City 1",
      "postalCode": "10000",
      "primary": true,
      "state": "state"
    },
    "destinationPoint": {
      "coordinates": [
        -3,
        69
      ],
      "line1": "Address 1",
      "city": "City 2",
      "postalCode": "20000",
      "primary": false,
      "state": "state"
    },
    "startedAt": "2016-11-01T02:08:01",
    "completedAt": "2016-11-01T05:53:23"
  },
  {
    "status": "completed",
    "startingPoint": {
      "coordinates": [
        73,
        56
      ],
      "line1": "Address 1",
      "city": "City 1",
      "postalCode": "10000",
      "primary": true,
      "state": "state"
    },
    "destinationPoint": {
      "coordinates": [
        -3,
        69
      ],
      "line1": "Address 1",
      "city": "City 2",
      "postalCode": "20000",
      "primary": false,
      "state": "state"
    },
    "startedAt": "2016-11-01T02:08:01",
    "completedAt": "2016-11-01T05:53:23"
  },
  {
    "status": "completed",
    "startingPoint": {
      "coordinates": [
        73,
        56
      ],
      "line1": "Address 1",
      "city": "City 1",
      "postalCode": "10000",
      "primary": true,
      "state": "state"
    },
    "destinationPoint": {
      "coordinates": [
        -3,
        69
      ],
      "line1": "Address 1",
      "city": "City 2",
      "postalCode": "20000",
      "primary": false,
      "state": "state"
    },
    "startedAt": "2016-11-01T02:08:01",
    "completedAt": "2016-11-01T05:53:23"
  },
  {
    "status": "completed",
    "startingPoint": {
      "coordinates": [
        73,
        56
      ],
      "line1": "Address 1",
      "city": "City 1",
      "postalCode": "10000",
      "primary": true,
      "state": "state"
    },
    "destinationPoint": {
      "coordinates": [
        -3,
        69
      ],
      "line1": "Address 1",
      "city": "City 2",
      "postalCode": "20000",
      "primary": false,
      "state": "state"
    },
    "startedAt": "2016-11-01T02:08:01",
    "completedAt": "2016-11-01T05:53:23"
  },
  {
    "status": "completed",
    "startingPoint": {
      "coordinates": [
        73,
        56
      ],
      "line1": "Address 1",
      "city": "City 1",
      "postalCode": "10000",
      "primary": true,
      "state": "state"
    },
    "destinationPoint": {
      "coordinates": [
        -3,
        69
      ],
      "line1": "Address 1",
      "city": "City 2",
      "postalCode": "20000",
      "primary": false,
      "state": "state"
    },
    "startedAt": "2016-11-01T02:08:01",
    "completedAt": "2016-11-01T05:53:23"
  },
  {
    "status": "completed",
    "startingPoint": {
      "coordinates": [
        73,
        56
      ],
      "line1": "Address 1",
      "city": "City 1",
      "postalCode": "10000",
      "primary": true,
      "state": "state"
    },
    "destinationPoint": {
      "coordinates": [
        -3,
        69
      ],
      "line1": "Address 1",
      "city": "City 2",
      "postalCode": "20000",
      "primary": false,
      "state": "state"
    },
    "startedAt": "2016-11-01T02:08:01",
    "completedAt": "2016-11-01T05:53:23"
  },
  {
    "status": "completed",
    "startingPoint": {
      "coordinates": [
        73,
        56
      ],
      "line1": "Address 1",
      "city": "City 1",
      "postalCode": "10000",
      "primary": true,
      "state": "state"
    },
    "destinationPoint": {
      "coordinates": [
        -3,
        69
      ],
      "line1": "Address 1",
      "city": "City 2",
      "postalCode": "20000",
      "primary": false,
      "state": "state"
    },
    "startedAt": "2016-11-01T02:08:01",
    "completedAt": "2016-11-01T05:53:23"
  },
  {
    "status": "completed",
    "startingPoint": {
      "coordinates": [
        73,
        56
      ],
      "line1": "Address 1",
      "city": "City 1",
      "postalCode": "10000",
      "primary": true,
      "state": "state"
    },
    "destinationPoint": {
      "coordinates": [
        -3,
        69
      ],
      "line1": "Address 1",
      "city": "City 2",
      "postalCode": "20000",
      "primary": false,
      "state": "state"
    },
    "startedAt": "2016-11-01T02:08:01",
    "completedAt": "2016-11-01T05:53:23"
  },
  {
    "status": "completed",
    "startingPoint": {
      "coordinates": [
        73,
        56
      ],
      "line1": "Address 1",
      "city": "City 1",
      "postalCode": "10000",
      "primary": true,
      "state": "state"
    },
    "destinationPoint": {
      "coordinates": [
        -3,
        69
      ],
      "line1": "Address 1",
      "city": "City 2",
      "postalCode": "20000",
      "primary": false,
      "state": "state"
    },
    "startedAt": "2016-11-01T02:08:01",
    "completedAt": "2016-11-01T05:53:23"
  },
  {
    "status": "completed",
    "startingPoint": {
      "coordinates": [
        73,
        56
      ],
      "line1": "Address 1",
      "city": "City 1",
      "postalCode": "10000",
      "primary": true,
      "state": "state"
    },
    "destinationPoint": {
      "coordinates": [
        -3,
        69
      ],
      "line1": "Address 1",
      "city": "City 2",
      "postalCode": "20000",
      "primary": false,
      "state": "state"
    },
    "startedAt": "2016-11-01T02:08:01",
    "completedAt": "2016-11-01T05:53:23"
  },
  {
    "status": "completed",
    "startingPoint": {
      "coordinates": [
        73,
        56
      ],
      "line1": "Address 1",
      "city": "City 1",
      "postalCode": "10000",
      "primary": true,
      "state": "state"
    },
    "destinationPoint": {
      "coordinates": [
        -3,
        69
      ],
      "line1": "Address 1",
      "city": "City 2",
      "postalCode": "20000",
      "primary": false,
      "state": "state"
    },
    "startedAt": "2016-11-01T02:08:01",
    "completedAt": "2016-11-01T05:53:23"
  },
  {
    "status": "completed",
    "startingPoint": {
      "coordinates": [
        73,
        56
      ],
      "line1": "Address 1",
      "city": "City 1",
      "postalCode": "10000",
      "primary": true,
      "state": "state"
    },
    "destinationPoint": {
      "coordinates": [
        -3,
        69
      ],
      "line1": "Address 1",
      "city": "City 2",
      "postalCode": "20000",
      "primary": false,
      "state": "state"
    },
    "startedAt": "2016-11-01T02:08:01",
    "completedAt": "2016-11-01T05:53:23"
  },
  {
    "status": "completed",
    "startingPoint": {
      "coordinates": [
        73,
        56
      ],
      "line1": "Address 1",
      "city": "City 1",
      "postalCode": "10000",
      "primary": true,
      "state": "state"
    },
    "destinationPoint": {
      "coordinates": [
        -3,
        69
      ],
      "line1": "Address 1",
      "city": "City 2",
      "postalCode": "20000",
      "primary": false,
      "state": "state"
    },
    "startedAt": "2016-11-01T02:08:01",
    "completedAt": "2016-11-01T05:53:23"
  },
  {
    "status": "completed",
    "startingPoint": {
      "coordinates": [
        73,
        56
      ],
      "line1": "Address 1",
      "city": "City 1",
      "postalCode": "10000",
      "primary": true,
      "state": "state"
    },
    "destinationPoint": {
      "coordinates": [
        -3,
        69
      ],
      "line1": "Address 1",
      "city": "City 2",
      "postalCode": "20000",
      "primary": false,
      "state": "state"
    },
    "startedAt": "2016-11-01T02:08:01",
    "completedAt": "2016-11-01T05:53:23"
  },
  {
    "status": "completed",
    "startingPoint": {
      "coordinates": [
        73,
        56
      ],
      "line1": "Address 1",
      "city": "City 1",
      "postalCode": "10000",
      "primary": true,
      "state": "state"
    },
    "destinationPoint": {
      "coordinates": [
        -3,
        69
      ],
      "line1": "Address 1",
      "city": "City 2",
      "postalCode": "20000",
      "primary": false,
      "state": "state"
    },
    "startedAt": "2016-11-01T02:08:01",
    "completedAt": "2016-11-01T05:53:23"
  },
  {
    "status": "completed",
    "startingPoint": {
      "coordinates": [
        73,
        56
      ],
      "line1": "Address 1",
      "city": "City 1",
      "postalCode": "10000",
      "primary": true,
      "state": "state"
    },
    "destinationPoint": {
      "coordinates": [
        -3,
        69
      ],
      "line1": "Address 1",
      "city": "City 2",
      "postalCode": "20000",
      "primary": false,
      "state": "state"
    },
    "startedAt": "2016-11-01T02:08:01",
    "completedAt": "2016-11-01T05:53:23"
  },{
    "status": "waiting",
    "startingPoint": {
      "coordinates": [
        73,
        56
      ],
      "line1": "Address 1",
      "city": "City 1",
      "postalCode": "10000",
      "primary": true,
      "state": "state"
    },
    "destinationPoint": {
      "coordinates": [
        -3,
        69
      ],
      "line1": "Address 1",
      "city": "City 2",
      "postalCode": "20000",
      "primary": false,
      "state": "state"
    }
  },
  {
    "status": "waiting",
    "startingPoint": {
      "coordinates": [
        73,
        56
      ],
      "line1": "Address 1",
      "city": "City 1",
      "postalCode": "10000",
      "primary": true,
      "state": "state"
    },
    "destinationPoint": {
      "coordinates": [
        -3,
        69
      ],
      "line1": "Address 1",
      "city": "City 2",
      "postalCode": "20000",
      "primary": false,
      "state": "state"
    }
  },
  {
    "status": "waiting",
    "startingPoint": {
      "coordinates": [
        73,
        56
      ],
      "line1": "Address 1",
      "city": "City 1",
      "postalCode": "10000",
      "primary": true,
      "state": "state"
    },
    "destinationPoint": {
      "coordinates": [
        -3,
        69
      ],
      "line1": "Address 1",
      "city": "City 2",
      "postalCode": "20000",
      "primary": false,
      "state": "state"
    }
  },
  {
    "status": "waiting",
    "startingPoint": {
      "coordinates": [
        73,
        56
      ],
      "line1": "Address 1",
      "city": "City 1",
      "postalCode": "10000",
      "primary": true,
      "state": "state"
    },
    "destinationPoint": {
      "coordinates": [
        -3,
        69
      ],
      "line1": "Address 1",
      "city": "City 2",
      "postalCode": "20000",
      "primary": false,
      "state": "state"
    }
  },
  {
    "status": "waiting",
    "startingPoint": {
      "coordinates": [
        73,
        56
      ],
      "line1": "Address 1",
      "city": "City 1",
      "postalCode": "10000",
      "primary": true,
      "state": "state"
    },
    "destinationPoint": {
      "coordinates": [
        -3,
        69
      ],
      "line1": "Address 1",
      "city": "City 2",
      "postalCode": "20000",
      "primary": false,
      "state": "state"
    }
  },
  {
    "status": "waiting",
    "startingPoint": {
      "coordinates": [
        73,
        56
      ],
      "line1": "Address 1",
      "city": "City 1",
      "postalCode": "10000",
      "primary": true,
      "state": "state"
    },
    "destinationPoint": {
      "coordinates": [
        -3,
        69
      ],
      "line1": "Address 1",
      "city": "City 2",
      "postalCode": "20000",
      "primary": false,
      "state": "state"
    }
  },
  {
    "status": "waiting",
    "startingPoint": {
      "coordinates": [
        73,
        56
      ],
      "line1": "Address 1",
      "city": "City 1",
      "postalCode": "10000",
      "primary": true,
      "state": "state"
    },
    "destinationPoint": {
      "coordinates": [
        -3,
        69
      ],
      "line1": "Address 1",
      "city": "City 2",
      "postalCode": "20000",
      "primary": false,
      "state": "state"
    }
  },
  {
    "status": "waiting",
    "startingPoint": {
      "coordinates": [
        73,
        56
      ],
      "line1": "Address 1",
      "city": "City 1",
      "postalCode": "10000",
      "primary": true,
      "state": "state"
    },
    "destinationPoint": {
      "coordinates": [
        -3,
        69
      ],
      "line1": "Address 1",
      "city": "City 2",
      "postalCode": "20000",
      "primary": false,
      "state": "state"
    }
  },
  {
    "status": "waiting",
    "startingPoint": {
      "coordinates": [
        73,
        56
      ],
      "line1": "Address 1",
      "city": "City 1",
      "postalCode": "10000",
      "primary": true,
      "state": "state"
    },
    "destinationPoint": {
      "coordinates": [
        -3,
        69
      ],
      "line1": "Address 1",
      "city": "City 2",
      "postalCode": "20000",
      "primary": false,
      "state": "state"
    }
  },
  {
    "status": "waiting",
    "startingPoint": {
      "coordinates": [
        73,
        56
      ],
      "line1": "Address 1",
      "city": "City 1",
      "postalCode": "10000",
      "primary": true,
      "state": "state"
    },
    "destinationPoint": {
      "coordinates": [
        -3,
        69
      ],
      "line1": "Address 1",
      "city": "City 2",
      "postalCode": "20000",
      "primary": false,
      "state": "state"
    }
  },
  {
    "status": "waiting",
    "startingPoint": {
      "coordinates": [
        73,
        56
      ],
      "line1": "Address 1",
      "city": "City 1",
      "postalCode": "10000",
      "primary": true,
      "state": "state"
    },
    "destinationPoint": {
      "coordinates": [
        -3,
        69
      ],
      "line1": "Address 1",
      "city": "City 2",
      "postalCode": "20000",
      "primary": false,
      "state": "state"
    }
  },
  {
    "status": "waiting",
    "startingPoint": {
      "coordinates": [
        73,
        56
      ],
      "line1": "Address 1",
      "city": "City 1",
      "postalCode": "10000",
      "primary": true,
      "state": "state"
    },
    "destinationPoint": {
      "coordinates": [
        -3,
        69
      ],
      "line1": "Address 1",
      "city": "City 2",
      "postalCode": "20000",
      "primary": false,
      "state": "state"
    }
  },
  {
    "status": "waiting",
    "startingPoint": {
      "coordinates": [
        73,
        56
      ],
      "line1": "Address 1",
      "city": "City 1",
      "postalCode": "10000",
      "primary": true,
      "state": "state"
    },
    "destinationPoint": {
      "coordinates": [
        -3,
        69
      ],
      "line1": "Address 1",
      "city": "City 2",
      "postalCode": "20000",
      "primary": false,
      "state": "state"
    }
  },
  {
    "status": "waiting",
    "startingPoint": {
      "coordinates": [
        73,
        56
      ],
      "line1": "Address 1",
      "city": "City 1",
      "postalCode": "10000",
      "primary": true,
      "state": "state"
    },
    "destinationPoint": {
      "coordinates": [
        -3,
        69
      ],
      "line1": "Address 1",
      "city": "City 2",
      "postalCode": "20000",
      "primary": false,
      "state": "state"
    }
  },
  {
    "status": "waiting",
    "startingPoint": {
      "coordinates": [
        73,
        56
      ],
      "line1": "Address 1",
      "city": "City 1",
      "postalCode": "10000",
      "primary": true,
      "state": "state"
    },
    "destinationPoint": {
      "coordinates": [
        -3,
        69
      ],
      "line1": "Address 1",
      "city": "City 2",
      "postalCode": "20000",
      "primary": false,
      "state": "state"
    }
  },
  {
    "status": "waiting",
    "startingPoint": {
      "coordinates": [
        73,
        56
      ],
      "line1": "Address 1",
      "city": "City 1",
      "postalCode": "10000",
      "primary": true,
      "state": "state"
    },
    "destinationPoint": {
      "coordinates": [
        -3,
        69
      ],
      "line1": "Address 1",
      "city": "City 2",
      "postalCode": "20000",
      "primary": false,
      "state": "state"
    }
  },
  {
    "status": "waiting",
    "startingPoint": {
      "coordinates": [
        73,
        56
      ],
      "line1": "Address 1",
      "city": "City 1",
      "postalCode": "10000",
      "primary": true,
      "state": "state"
    },
    "destinationPoint": {
      "coordinates": [
        -3,
        69
      ],
      "line1": "Address 1",
      "city": "City 2",
      "postalCode": "20000",
      "primary": false,
      "state": "state"
    }
  },
  {
    "status": "waiting",
    "startingPoint": {
      "coordinates": [
        73,
        56
      ],
      "line1": "Address 1",
      "city": "City 1",
      "postalCode": "10000",
      "primary": true,
      "state": "state"
    },
    "destinationPoint": {
      "coordinates": [
        -3,
        69
      ],
      "line1": "Address 1",
      "city": "City 2",
      "postalCode": "20000",
      "primary": false,
      "state": "state"
    }
  },
  {
    "status": "waiting",
    "startingPoint": {
      "coordinates": [
        73,
        56
      ],
      "line1": "Address 1",
      "city": "City 1",
      "postalCode": "10000",
      "primary": true,
      "state": "state"
    },
    "destinationPoint": {
      "coordinates": [
        -3,
        69
      ],
      "line1": "Address 1",
      "city": "City 2",
      "postalCode": "20000",
      "primary": false,
      "state": "state"
    }
  },
  {
    "status": "waiting",
    "startingPoint": {
      "coordinates": [
        73,
        56
      ],
      "line1": "Address 1",
      "city": "City 1",
      "postalCode": "10000",
      "primary": true,
      "state": "state"
    },
    "destinationPoint": {
      "coordinates": [
        -3,
        69
      ],
      "line1": "Address 1",
      "city": "City 2",
      "postalCode": "20000",
      "primary": false,
      "state": "state"
    }
  },
  {
    "status": "waiting",
    "startingPoint": {
      "coordinates": [
        73,
        56
      ],
      "line1": "Address 1",
      "city": "City 1",
      "postalCode": "10000",
      "primary": true,
      "state": "state"
    },
    "destinationPoint": {
      "coordinates": [
        -3,
        69
      ],
      "line1": "Address 1",
      "city": "City 2",
      "postalCode": "20000",
      "primary": false,
      "state": "state"
    }
  },
  {
    "status": "waiting",
    "startingPoint": {
      "coordinates": [
        73,
        56
      ],
      "line1": "Address 1",
      "city": "City 1",
      "postalCode": "10000",
      "primary": true,
      "state": "state"
    },
    "destinationPoint": {
      "coordinates": [
        -3,
        69
      ],
      "line1": "Address 1",
      "city": "City 2",
      "postalCode": "20000",
      "primary": false,
      "state": "state"
    }
  },
  {
    "status": "waiting",
    "startingPoint": {
      "coordinates": [
        73,
        56
      ],
      "line1": "Address 1",
      "city": "City 1",
      "postalCode": "10000",
      "primary": true,
      "state": "state"
    },
    "destinationPoint": {
      "coordinates": [
        -3,
        69
      ],
      "line1": "Address 1",
      "city": "City 2",
      "postalCode": "20000",
      "primary": false,
      "state": "state"
    }
  },
  {
    "status": "waiting",
    "startingPoint": {
      "coordinates": [
        73,
        56
      ],
      "line1": "Address 1",
      "city": "City 1",
      "postalCode": "10000",
      "primary": true,
      "state": "state"
    },
    "destinationPoint": {
      "coordinates": [
        -3,
        69
      ],
      "line1": "Address 1",
      "city": "City 2",
      "postalCode": "20000",
      "primary": false,
      "state": "state"
    }
  },
  {
    "status": "waiting",
    "startingPoint": {
      "coordinates": [
        73,
        56
      ],
      "line1": "Address 1",
      "city": "City 1",
      "postalCode": "10000",
      "primary": true,
      "state": "state"
    },
    "destinationPoint": {
      "coordinates": [
        -3,
        69
      ],
      "line1": "Address 1",
      "city": "City 2",
      "postalCode": "20000",
      "primary": false,
      "state": "state"
    }
  },
  {
    "status": "waiting",
    "startingPoint": {
      "coordinates": [
        73,
        56
      ],
      "line1": "Address 1",
      "city": "City 1",
      "postalCode": "10000",
      "primary": true,
      "state": "state"
    },
    "destinationPoint": {
      "coordinates": [
        -3,
        69
      ],
      "line1": "Address 1",
      "city": "City 2",
      "postalCode": "20000",
      "primary": false,
      "state": "state"
    }
  },
  {
    "status": "waiting",
    "startingPoint": {
      "coordinates": [
        73,
        56
      ],
      "line1": "Address 1",
      "city": "City 1",
      "postalCode": "10000",
      "primary": true,
      "state": "state"
    },
    "destinationPoint": {
      "coordinates": [
        -3,
        69
      ],
      "line1": "Address 1",
      "city": "City 2",
      "postalCode": "20000",
      "primary": false,
      "state": "state"
    }
  },
  {
    "status": "waiting",
    "startingPoint": {
      "coordinates": [
        73,
        56
      ],
      "line1": "Address 1",
      "city": "City 1",
      "postalCode": "10000",
      "primary": true,
      "state": "state"
    },
    "destinationPoint": {
      "coordinates": [
        -3,
        69
      ],
      "line1": "Address 1",
      "city": "City 2",
      "postalCode": "20000",
      "primary": false,
      "state": "state"
    }
  },
  {
    "status": "waiting",
    "startingPoint": {
      "coordinates": [
        73,
        56
      ],
      "line1": "Address 1",
      "city": "City 1",
      "postalCode": "10000",
      "primary": true,
      "state": "state"
    },
    "destinationPoint": {
      "coordinates": [
        -3,
        69
      ],
      "line1": "Address 1",
      "city": "City 2",
      "postalCode": "20000",
      "primary": false,
      "state": "state"
    }
  },
  {
    "status": "waiting",
    "startingPoint": {
      "coordinates": [
        73,
        56
      ],
      "line1": "Address 1",
      "city": "City 1",
      "postalCode": "10000",
      "primary": true,
      "state": "state"
    },
    "destinationPoint": {
      "coordinates": [
        -3,
        69
      ],
      "line1": "Address 1",
      "city": "City 2",
      "postalCode": "20000",
      "primary": false,
      "state": "state"
    }
  },
  {
    "status": "waiting",
    "startingPoint": {
      "coordinates": [
        73,
        56
      ],
      "line1": "Address 1",
      "city": "City 1",
      "postalCode": "10000",
      "primary": true,
      "state": "state"
    },
    "destinationPoint": {
      "coordinates": [
        -3,
        69
      ],
      "line1": "Address 1",
      "city": "City 2",
      "postalCode": "20000",
      "primary": false,
      "state": "state"
    }
  },
  {
    "status": "waiting",
    "startingPoint": {
      "coordinates": [
        73,
        56
      ],
      "line1": "Address 1",
      "city": "City 1",
      "postalCode": "10000",
      "primary": true,
      "state": "state"
    },
    "destinationPoint": {
      "coordinates": [
        -3,
        69
      ],
      "line1": "Address 1",
      "city": "City 2",
      "postalCode": "20000",
      "primary": false,
      "state": "state"
    }
  },
  {
    "status": "waiting",
    "startingPoint": {
      "coordinates": [
        73,
        56
      ],
      "line1": "Address 1",
      "city": "City 1",
      "postalCode": "10000",
      "primary": true,
      "state": "state"
    },
    "destinationPoint": {
      "coordinates": [
        -3,
        69
      ],
      "line1": "Address 1",
      "city": "City 2",
      "postalCode": "20000",
      "primary": false,
      "state": "state"
    }
  },
  {
    "status": "waiting",
    "startingPoint": {
      "coordinates": [
        73,
        56
      ],
      "line1": "Address 1",
      "city": "City 1",
      "postalCode": "10000",
      "primary": true,
      "state": "state"
    },
    "destinationPoint": {
      "coordinates": [
        -3,
        69
      ],
      "line1": "Address 1",
      "city": "City 2",
      "postalCode": "20000",
      "primary": false,
      "state": "state"
    }
  },
  {
    "status": "waiting",
    "startingPoint": {
      "coordinates": [
        73,
        56
      ],
      "line1": "Address 1",
      "city": "City 1",
      "postalCode": "10000",
      "primary": true,
      "state": "state"
    },
    "destinationPoint": {
      "coordinates": [
        -3,
        69
      ],
      "line1": "Address 1",
      "city": "City 2",
      "postalCode": "20000",
      "primary": false,
      "state": "state"
    }
  },
  {
    "status": "waiting",
    "startingPoint": {
      "coordinates": [
        73,
        56
      ],
      "line1": "Address 1",
      "city": "City 1",
      "postalCode": "10000",
      "primary": true,
      "state": "state"
    },
    "destinationPoint": {
      "coordinates": [
        -3,
        69
      ],
      "line1": "Address 1",
      "city": "City 2",
      "postalCode": "20000",
      "primary": false,
      "state": "state"
    }
  },
  {
    "status": "completed",
    "startingPoint": {
      "coordinates": [
        73,
        56
      ],
      "line1": "Address 1",
      "city": "City 1",
      "postalCode": "10000",
      "primary": true,
      "state": "state"
    },
    "destinationPoint": {
      "coordinates": [
        -3,
        69
      ],
      "line1": "Address 1",
      "city": "City 2",
      "postalCode": "20000",
      "primary": false,
      "state": "state"
    },
    "startedAt": "2016-11-01T02:08:01",
    "completedAt": "2016-11-01T05:53:23"
  },
  {
    "status": "completed",
    "startingPoint": {
      "coordinates": [
        73,
        56
      ],
      "line1": "Address 1",
      "city": "City 1",
      "postalCode": "10000",
      "primary": true,
      "state": "state"
    },
    "destinationPoint": {
      "coordinates": [
        -3,
        69
      ],
      "line1": "Address 1",
      "city": "City 2",
      "postalCode": "20000",
      "primary": false,
      "state": "state"
    },
    "startedAt": "2016-11-01T02:08:01",
    "completedAt": "2016-11-01T05:53:23"
  },
  {
    "status": "completed",
    "startingPoint": {
      "coordinates": [
        73,
        56
      ],
      "line1": "Address 1",
      "city": "City 1",
      "postalCode": "10000",
      "primary": true,
      "state": "state"
    },
    "destinationPoint": {
      "coordinates": [
        -3,
        69
      ],
      "line1": "Address 1",
      "city": "City 2",
      "postalCode": "20000",
      "primary": false,
      "state": "state"
    },
    "startedAt": "2016-11-01T02:08:01",
    "completedAt": "2016-11-01T05:53:23"
  },
  {
    "status": "completed",
    "startingPoint": {
      "coordinates": [
        73,
        56
      ],
      "line1": "Address 1",
      "city": "City 1",
      "postalCode": "10000",
      "primary": true,
      "state": "state"
    },
    "destinationPoint": {
      "coordinates": [
        -3,
        69
      ],
      "line1": "Address 1",
      "city": "City 2",
      "postalCode": "20000",
      "primary": false,
      "state": "state"
    },
    "startedAt": "2016-11-01T02:08:01",
    "completedAt": "2016-11-01T05:53:23"
  },
  {
    "status": "completed",
    "startingPoint": {
      "coordinates": [
        73,
        56
      ],
      "line1": "Address 1",
      "city": "City 1",
      "postalCode": "10000",
      "primary": true,
      "state": "state"
    },
    "destinationPoint": {
      "coordinates": [
        -3,
        69
      ],
      "line1": "Address 1",
      "city": "City 2",
      "postalCode": "20000",
      "primary": false,
      "state": "state"
    },
    "startedAt": "2016-11-01T02:08:01",
    "completedAt": "2016-11-01T05:53:23"
  },
  {
    "status": "completed",
    "startingPoint": {
      "coordinates": [
        73,
        56
      ],
      "line1": "Address 1",
      "city": "City 1",
      "postalCode": "10000",
      "primary": true,
      "state": "state"
    },
    "destinationPoint": {
      "coordinates": [
        -3,
        69
      ],
      "line1": "Address 1",
      "city": "City 2",
      "postalCode": "20000",
      "primary": false,
      "state": "state"
    },
    "startedAt": "2016-11-01T02:08:01",
    "completedAt": "2016-11-01T05:53:23"
  },
  {
    "status": "completed",
    "startingPoint": {
      "coordinates": [
        73,
        56
      ],
      "line1": "Address 1",
      "city": "City 1",
      "postalCode": "10000",
      "primary": true,
      "state": "state"
    },
    "destinationPoint": {
      "coordinates": [
        -3,
        69
      ],
      "line1": "Address 1",
      "city": "City 2",
      "postalCode": "20000",
      "primary": false,
      "state": "state"
    },
    "startedAt": "2016-11-01T02:08:01",
    "completedAt": "2016-11-01T05:53:23"
  },
  {
    "status": "completed",
    "startingPoint": {
      "coordinates": [
        73,
        56
      ],
      "line1": "Address 1",
      "city": "City 1",
      "postalCode": "10000",
      "primary": true,
      "state": "state"
    },
    "destinationPoint": {
      "coordinates": [
        -3,
        69
      ],
      "line1": "Address 1",
      "city": "City 2",
      "postalCode": "20000",
      "primary": false,
      "state": "state"
    },
    "startedAt": "2016-11-01T02:08:01",
    "completedAt": "2016-11-01T05:53:23"
  },
  {
    "status": "completed",
    "startingPoint": {
      "coordinates": [
        73,
        56
      ],
      "line1": "Address 1",
      "city": "City 1",
      "postalCode": "10000",
      "primary": true,
      "state": "state"
    },
    "destinationPoint": {
      "coordinates": [
        -3,
        69
      ],
      "line1": "Address 1",
      "city": "City 2",
      "postalCode": "20000",
      "primary": false,
      "state": "state"
    },
    "startedAt": "2016-11-01T02:08:01",
    "completedAt": "2016-11-01T05:53:23"
  },
  {
    "status": "completed",
    "startingPoint": {
      "coordinates": [
        73,
        56
      ],
      "line1": "Address 1",
      "city": "City 1",
      "postalCode": "10000",
      "primary": true,
      "state": "state"
    },
    "destinationPoint": {
      "coordinates": [
        -3,
        69
      ],
      "line1": "Address 1",
      "city": "City 2",
      "postalCode": "20000",
      "primary": false,
      "state": "state"
    },
    "startedAt": "2016-11-01T02:08:01",
    "completedAt": "2016-11-01T05:53:23"
  },
  {
    "status": "completed",
    "startingPoint": {
      "coordinates": [
        73,
        56
      ],
      "line1": "Address 1",
      "city": "City 1",
      "postalCode": "10000",
      "primary": true,
      "state": "state"
    },
    "destinationPoint": {
      "coordinates": [
        -3,
        69
      ],
      "line1": "Address 1",
      "city": "City 2",
      "postalCode": "20000",
      "primary": false,
      "state": "state"
    },
    "startedAt": "2016-11-01T02:08:01",
    "completedAt": "2016-11-01T05:53:23"
  },
  {
    "status": "completed",
    "startingPoint": {
      "coordinates": [
        73,
        56
      ],
      "line1": "Address 1",
      "city": "City 1",
      "postalCode": "10000",
      "primary": true,
      "state": "state"
    },
    "destinationPoint": {
      "coordinates": [
        -3,
        69
      ],
      "line1": "Address 1",
      "city": "City 2",
      "postalCode": "20000",
      "primary": false,
      "state": "state"
    },
    "startedAt": "2016-11-01T02:08:01",
    "completedAt": "2016-11-01T05:53:23"
  },
  {
    "status": "completed",
    "startingPoint": {
      "coordinates": [
        73,
        56
      ],
      "line1": "Address 1",
      "city": "City 1",
      "postalCode": "10000",
      "primary": true,
      "state": "state"
    },
    "destinationPoint": {
      "coordinates": [
        -3,
        69
      ],
      "line1": "Address 1",
      "city": "City 2",
      "postalCode": "20000",
      "primary": false,
      "state": "state"
    },
    "startedAt": "2016-11-01T02:08:01",
    "completedAt": "2016-11-01T05:53:23"
  },
  {
    "status": "completed",
    "startingPoint": {
      "coordinates": [
        73,
        56
      ],
      "line1": "Address 1",
      "city": "City 1",
      "postalCode": "10000",
      "primary": true,
      "state": "state"
    },
    "destinationPoint": {
      "coordinates": [
        -3,
        69
      ],
      "line1": "Address 1",
      "city": "City 2",
      "postalCode": "20000",
      "primary": false,
      "state": "state"
    },
    "startedAt": "2016-11-01T02:08:01",
    "completedAt": "2016-11-01T05:53:23"
  },
  {
    "status": "completed",
    "startingPoint": {
      "coordinates": [
        73,
        56
      ],
      "line1": "Address 1",
      "city": "City 1",
      "postalCode": "10000",
      "primary": true,
      "state": "state"
    },
    "destinationPoint": {
      "coordinates": [
        -3,
        69
      ],
      "line1": "Address 1",
      "city": "City 2",
      "postalCode": "20000",
      "primary": false,
      "state": "state"
    },
    "startedAt": "2016-11-01T02:08:01",
    "completedAt": "2016-11-01T05:53:23"
  },
  {
    "status": "completed",
    "startingPoint": {
      "coordinates": [
        73,
        56
      ],
      "line1": "Address 1",
      "city": "City 1",
      "postalCode": "10000",
      "primary": true,
      "state": "state"
    },
    "destinationPoint": {
      "coordinates": [
        -3,
        69
      ],
      "line1": "Address 1",
      "city": "City 2",
      "postalCode": "20000",
      "primary": false,
      "state": "state"
    },
    "startedAt": "2016-11-01T02:08:01",
    "completedAt": "2016-11-01T05:53:23"
  },
  {
    "status": "completed",
    "startingPoint": {
      "coordinates": [
        73,
        56
      ],
      "line1": "Address 1",
      "city": "City 1",
      "postalCode": "10000",
      "primary": true,
      "state": "state"
    },
    "destinationPoint": {
      "coordinates": [
        -3,
        69
      ],
      "line1": "Address 1",
      "city": "City 2",
      "postalCode": "20000",
      "primary": false,
      "state": "state"
    },
    "startedAt": "2016-11-01T02:08:01",
    "completedAt": "2016-11-01T05:53:23"
  },
  {
    "status": "completed",
    "startingPoint": {
      "coordinates": [
        73,
        56
      ],
      "line1": "Address 1",
      "city": "City 1",
      "postalCode": "10000",
      "primary": true,
      "state": "state"
    },
    "destinationPoint": {
      "coordinates": [
        -3,
        69
      ],
      "line1": "Address 1",
      "city": "City 2",
      "postalCode": "20000",
      "primary": false,
      "state": "state"
    },
    "startedAt": "2016-11-01T02:08:01",
    "completedAt": "2016-11-01T05:53:23"
  },
  {
    "status": "completed",
    "startingPoint": {
      "coordinates": [
        73,
        56
      ],
      "line1": "Address 1",
      "city": "City 1",
      "postalCode": "10000",
      "primary": true,
      "state": "state"
    },
    "destinationPoint": {
      "coordinates": [
        -3,
        69
      ],
      "line1": "Address 1",
      "city": "City 2",
      "postalCode": "20000",
      "primary": false,
      "state": "state"
    },
    "startedAt": "2016-11-01T02:08:01",
    "completedAt": "2016-11-01T05:53:23"
  },
  {
    "status": "completed",
    "startingPoint": {
      "coordinates": [
        73,
        56
      ],
      "line1": "Address 1",
      "city": "City 1",
      "postalCode": "10000",
      "primary": true,
      "state": "state"
    },
    "destinationPoint": {
      "coordinates": [
        -3,
        69
      ],
      "line1": "Address 1",
      "city": "City 2",
      "postalCode": "20000",
      "primary": false,
      "state": "state"
    },
    "startedAt": "2016-11-01T02:08:01",
    "completedAt": "2016-11-01T05:53:23"
  },
  {
    "status": "completed",
    "startingPoint": {
      "coordinates": [
        73,
        56
      ],
      "line1": "Address 1",
      "city": "City 1",
      "postalCode": "10000",
      "primary": true,
      "state": "state"
    },
    "destinationPoint": {
      "coordinates": [
        -3,
        69
      ],
      "line1": "Address 1",
      "city": "City 2",
      "postalCode": "20000",
      "primary": false,
      "state": "state"
    },
    "startedAt": "2016-11-01T02:08:01",
    "completedAt": "2016-11-01T05:53:23"
  },
  {
    "status": "completed",
    "startingPoint": {
      "coordinates": [
        73,
        56
      ],
      "line1": "Address 1",
      "city": "City 1",
      "postalCode": "10000",
      "primary": true,
      "state": "state"
    },
    "destinationPoint": {
      "coordinates": [
        -3,
        69
      ],
      "line1": "Address 1",
      "city": "City 2",
      "postalCode": "20000",
      "primary": false,
      "state": "state"
    },
    "startedAt": "2016-11-01T02:08:01",
    "completedAt": "2016-11-01T05:53:23"
  },
  {
    "status": "completed",
    "startingPoint": {
      "coordinates": [
        73,
        56
      ],
      "line1": "Address 1",
      "city": "City 1",
      "postalCode": "10000",
      "primary": true,
      "state": "state"
    },
    "destinationPoint": {
      "coordinates": [
        -3,
        69
      ],
      "line1": "Address 1",
      "city": "City 2",
      "postalCode": "20000",
      "primary": false,
      "state": "state"
    },
    "startedAt": "2016-11-01T02:08:01",
    "completedAt": "2016-11-01T05:53:23"
  },
  {
    "status": "completed",
    "startingPoint": {
      "coordinates": [
        73,
        56
      ],
      "line1": "Address 1",
      "city": "City 1",
      "postalCode": "10000",
      "primary": true,
      "state": "state"
    },
    "destinationPoint": {
      "coordinates": [
        -3,
        69
      ],
      "line1": "Address 1",
      "city": "City 2",
      "postalCode": "20000",
      "primary": false,
      "state": "state"
    },
    "startedAt": "2016-11-01T02:08:01",
    "completedAt": "2016-11-01T05:53:23"
  },
  {
    "status": "completed",
    "startingPoint": {
      "coordinates": [
        73,
        56
      ],
      "line1": "Address 1",
      "city": "City 1",
      "postalCode": "10000",
      "primary": true,
      "state": "state"
    },
    "destinationPoint": {
      "coordinates": [
        -3,
        69
      ],
      "line1": "Address 1",
      "city": "City 2",
      "postalCode": "20000",
      "primary": false,
      "state": "state"
    },
    "startedAt": "2016-11-01T02:08:01",
    "completedAt": "2016-11-01T05:53:23"
  },
  {
    "status": "completed",
    "startingPoint": {
      "coordinates": [
        73,
        56
      ],
      "line1": "Address 1",
      "city": "City 1",
      "postalCode": "10000",
      "primary": true,
      "state": "state"
    },
    "destinationPoint": {
      "coordinates": [
        -3,
        69
      ],
      "line1": "Address 1",
      "city": "City 2",
      "postalCode": "20000",
      "primary": false,
      "state": "state"
    },
    "startedAt": "2016-11-01T02:08:01",
    "completedAt": "2016-11-01T05:53:23"
  },
  {
    "status": "completed",
    "startingPoint": {
      "coordinates": [
        73,
        56
      ],
      "line1": "Address 1",
      "city": "City 1",
      "postalCode": "10000",
      "primary": true,
      "state": "state"
    },
    "destinationPoint": {
      "coordinates": [
        -3,
        69
      ],
      "line1": "Address 1",
      "city": "City 2",
      "postalCode": "20000",
      "primary": false,
      "state": "state"
    },
    "startedAt": "2016-11-01T02:08:01",
    "completedAt": "2016-11-01T05:53:23"
  },
  {
    "status": "completed",
    "startingPoint": {
      "coordinates": [
        73,
        56
      ],
      "line1": "Address 1",
      "city": "City 1",
      "postalCode": "10000",
      "primary": true,
      "state": "state"
    },
    "destinationPoint": {
      "coordinates": [
        -3,
        69
      ],
      "line1": "Address 1",
      "city": "City 2",
      "postalCode": "20000",
      "primary": false,
      "state": "state"
    },
    "startedAt": "2016-11-01T02:08:01",
    "completedAt": "2016-11-01T05:53:23"
  },
  {
    "status": "completed",
    "startingPoint": {
      "coordinates": [
        73,
        56
      ],
      "line1": "Address 1",
      "city": "City 1",
      "postalCode": "10000",
      "primary": true,
      "state": "state"
    },
    "destinationPoint": {
      "coordinates": [
        -3,
        69
      ],
      "line1": "Address 1",
      "city": "City 2",
      "postalCode": "20000",
      "primary": false,
      "state": "state"
    },
    "startedAt": "2016-11-01T02:08:01",
    "completedAt": "2016-11-01T05:53:23"
  },
  {
    "status": "completed",
    "startingPoint": {
      "coordinates": [
        73,
        56
      ],
      "line1": "Address 1",
      "city": "City 1",
      "postalCode": "10000",
      "primary": true,
      "state": "state"
    },
    "destinationPoint": {
      "coordinates": [
        -3,
        69
      ],
      "line1": "Address 1",
      "city": "City 2",
      "postalCode": "20000",
      "primary": false,
      "state": "state"
    },
    "startedAt": "2016-11-01T02:08:01",
    "completedAt": "2016-11-01T05:53:23"
  },
  {
    "status": "waiting",
    "startingPoint": {
      "coordinates": [
        73,
        56
      ],
      "line1": "Address 1",
      "city": "City 1",
      "postalCode": "10000",
      "primary": true,
      "state": "state"
    },
    "destinationPoint": {
      "coordinates": [
        -3,
        69
      ],
      "line1": "Address 1",
      "city": "City 2",
      "postalCode": "20000",
      "primary": false,
      "state": "state"
    }
  },
  {
    "status": "waiting",
    "startingPoint": {
      "coordinates": [
        73,
        56
      ],
      "line1": "Address 1",
      "city": "City 1",
      "postalCode": "10000",
      "primary": true,
      "state": "state"
    },
    "destinationPoint": {
      "coordinates": [
        -3,
        69
      ],
      "line1": "Address 1",
      "city": "City 2",
      "postalCode": "20000",
      "primary": false,
      "state": "state"
    }
  },
  {
    "status": "waiting",
    "startingPoint": {
      "coordinates": [
        73,
        56
      ],
      "line1": "Address 1",
      "city": "City 1",
      "postalCode": "10000",
      "primary": true,
      "state": "state"
    },
    "destinationPoint": {
      "coordinates": [
        -3,
        69
      ],
      "line1": "Address 1",
      "city": "City 2",
      "postalCode": "20000",
      "primary": false,
      "state": "state"
    }
  },
  {
    "status": "waiting",
    "startingPoint": {
      "coordinates": [
        73,
        56
      ],
      "line1": "Address 1",
      "city": "City 1",
      "postalCode": "10000",
      "primary": true,
      "state": "state"
    },
    "destinationPoint": {
      "coordinates": [
        -3,
        69
      ],
      "line1": "Address 1",
      "city": "City 2",
      "postalCode": "20000",
      "primary": false,
      "state": "state"
    }
  },
  {
    "status": "waiting",
    "startingPoint": {
      "coordinates": [
        73,
        56
      ],
      "line1": "Address 1",
      "city": "City 1",
      "postalCode": "10000",
      "primary": true,
      "state": "state"
    },
    "destinationPoint": {
      "coordinates": [
        -3,
        69
      ],
      "line1": "Address 1",
      "city": "City 2",
      "postalCode": "20000",
      "primary": false,
      "state": "state"
    }
  },
  {
    "status": "waiting",
    "startingPoint": {
      "coordinates": [
        73,
        56
      ],
      "line1": "Address 1",
      "city": "City 1",
      "postalCode": "10000",
      "primary": true,
      "state": "state"
    },
    "destinationPoint": {
      "coordinates": [
        -3,
        69
      ],
      "line1": "Address 1",
      "city": "City 2",
      "postalCode": "20000",
      "primary": false,
      "state": "state"
    }
  },
  {
    "status": "waiting",
    "startingPoint": {
      "coordinates": [
        73,
        56
      ],
      "line1": "Address 1",
      "city": "City 1",
      "postalCode": "10000",
      "primary": true,
      "state": "state"
    },
    "destinationPoint": {
      "coordinates": [
        -3,
        69
      ],
      "line1": "Address 1",
      "city": "City 2",
      "postalCode": "20000",
      "primary": false,
      "state": "state"
    }
  },
  {
    "status": "waiting",
    "startingPoint": {
      "coordinates": [
        73,
        56
      ],
      "line1": "Address 1",
      "city": "City 1",
      "postalCode": "10000",
      "primary": true,
      "state": "state"
    },
    "destinationPoint": {
      "coordinates": [
        -3,
        69
      ],
      "line1": "Address 1",
      "city": "City 2",
      "postalCode": "20000",
      "primary": false,
      "state": "state"
    }
  },
  {
    "status": "waiting",
    "startingPoint": {
      "coordinates": [
        73,
        56
      ],
      "line1": "Address 1",
      "city": "City 1",
      "postalCode": "10000",
      "primary": true,
      "state": "state"
    },
    "destinationPoint": {
      "coordinates": [
        -3,
        69
      ],
      "line1": "Address 1",
      "city": "City 2",
      "postalCode": "20000",
      "primary": false,
      "state": "state"
    }
  },
  {
    "status": "waiting",
    "startingPoint": {
      "coordinates": [
        73,
        56
      ],
      "line1": "Address 1",
      "city": "City 1",
      "postalCode": "10000",
      "primary": true,
      "state": "state"
    },
    "destinationPoint": {
      "coordinates": [
        -3,
        69
      ],
      "line1": "Address 1",
      "city": "City 2",
      "postalCode": "20000",
      "primary": false,
      "state": "state"
    }
  },
  {
    "status": "waiting",
    "startingPoint": {
      "coordinates": [
        73,
        56
      ],
      "line1": "Address 1",
      "city": "City 1",
      "postalCode": "10000",
      "primary": true,
      "state": "state"
    },
    "destinationPoint": {
      "coordinates": [
        -3,
        69
      ],
      "line1": "Address 1",
      "city": "City 2",
      "postalCode": "20000",
      "primary": false,
      "state": "state"
    }
  },
  {
    "status": "waiting",
    "startingPoint": {
      "coordinates": [
        73,
        56
      ],
      "line1": "Address 1",
      "city": "City 1",
      "postalCode": "10000",
      "primary": true,
      "state": "state"
    },
    "destinationPoint": {
      "coordinates": [
        -3,
        69
      ],
      "line1": "Address 1",
      "city": "City 2",
      "postalCode": "20000",
      "primary": false,
      "state": "state"
    }
  },
  {
    "status": "waiting",
    "startingPoint": {
      "coordinates": [
        73,
        56
      ],
      "line1": "Address 1",
      "city": "City 1",
      "postalCode": "10000",
      "primary": true,
      "state": "state"
    },
    "destinationPoint": {
      "coordinates": [
        -3,
        69
      ],
      "line1": "Address 1",
      "city": "City 2",
      "postalCode": "20000",
      "primary": false,
      "state": "state"
    }
  },
  {
    "status": "waiting",
    "startingPoint": {
      "coordinates": [
        73,
        56
      ],
      "line1": "Address 1",
      "city": "City 1",
      "postalCode": "10000",
      "primary": true,
      "state": "state"
    },
    "destinationPoint": {
      "coordinates": [
        -3,
        69
      ],
      "line1": "Address 1",
      "city": "City 2",
      "postalCode": "20000",
      "primary": false,
      "state": "state"
    }
  },
  {
    "status": "waiting",
    "startingPoint": {
      "coordinates": [
        73,
        56
      ],
      "line1": "Address 1",
      "city": "City 1",
      "postalCode": "10000",
      "primary": true,
      "state": "state"
    },
    "destinationPoint": {
      "coordinates": [
        -3,
        69
      ],
      "line1": "Address 1",
      "city": "City 2",
      "postalCode": "20000",
      "primary": false,
      "state": "state"
    }
  },
  {
    "status": "waiting",
    "startingPoint": {
      "coordinates": [
        73,
        56
      ],
      "line1": "Address 1",
      "city": "City 1",
      "postalCode": "10000",
      "primary": true,
      "state": "state"
    },
    "destinationPoint": {
      "coordinates": [
        -3,
        69
      ],
      "line1": "Address 1",
      "city": "City 2",
      "postalCode": "20000",
      "primary": false,
      "state": "state"
    }
  },
  {
    "status": "waiting",
    "startingPoint": {
      "coordinates": [
        73,
        56
      ],
      "line1": "Address 1",
      "city": "City 1",
      "postalCode": "10000",
      "primary": true,
      "state": "state"
    },
    "destinationPoint": {
      "coordinates": [
        -3,
        69
      ],
      "line1": "Address 1",
      "city": "City 2",
      "postalCode": "20000",
      "primary": false,
      "state": "state"
    }
  },
  {
    "status": "waiting",
    "startingPoint": {
      "coordinates": [
        73,
        56
      ],
      "line1": "Address 1",
      "city": "City 1",
      "postalCode": "10000",
      "primary": true,
      "state": "state"
    },
    "destinationPoint": {
      "coordinates": [
        -3,
        69
      ],
      "line1": "Address 1",
      "city": "City 2",
      "postalCode": "20000",
      "primary": false,
      "state": "state"
    }
  },
  {
    "status": "waiting",
    "startingPoint": {
      "coordinates": [
        73,
        56
      ],
      "line1": "Address 1",
      "city": "City 1",
      "postalCode": "10000",
      "primary": true,
      "state": "state"
    },
    "destinationPoint": {
      "coordinates": [
        -3,
        69
      ],
      "line1": "Address 1",
      "city": "City 2",
      "postalCode": "20000",
      "primary": false,
      "state": "state"
    }
  },
  {
    "status": "waiting",
    "startingPoint": {
      "coordinates": [
        73,
        56
      ],
      "line1": "Address 1",
      "city": "City 1",
      "postalCode": "10000",
      "primary": true,
      "state": "state"
    },
    "destinationPoint": {
      "coordinates": [
        -3,
        69
      ],
      "line1": "Address 1",
      "city": "City 2",
      "postalCode": "20000",
      "primary": false,
      "state": "state"
    }
  },
  {
    "status": "waiting",
    "startingPoint": {
      "coordinates": [
        73,
        56
      ],
      "line1": "Address 1",
      "city": "City 1",
      "postalCode": "10000",
      "primary": true,
      "state": "state"
    },
    "destinationPoint": {
      "coordinates": [
        -3,
        69
      ],
      "line1": "Address 1",
      "city": "City 2",
      "postalCode": "20000",
      "primary": false,
      "state": "state"
    }
  },
  {
    "status": "waiting",
    "startingPoint": {
      "coordinates": [
        73,
        56
      ],
      "line1": "Address 1",
      "city": "City 1",
      "postalCode": "10000",
      "primary": true,
      "state": "state"
    },
    "destinationPoint": {
      "coordinates": [
        -3,
        69
      ],
      "line1": "Address 1",
      "city": "City 2",
      "postalCode": "20000",
      "primary": false,
      "state": "state"
    }
  },
  {
    "status": "waiting",
    "startingPoint": {
      "coordinates": [
        73,
        56
      ],
      "line1": "Address 1",
      "city": "City 1",
      "postalCode": "10000",
      "primary": true,
      "state": "state"
    },
    "destinationPoint": {
      "coordinates": [
        -3,
        69
      ],
      "line1": "Address 1",
      "city": "City 2",
      "postalCode": "20000",
      "primary": false,
      "state": "state"
    }
  },
  {
    "status": "waiting",
    "startingPoint": {
      "coordinates": [
        73,
        56
      ],
      "line1": "Address 1",
      "city": "City 1",
      "postalCode": "10000",
      "primary": true,
      "state": "state"
    },
    "destinationPoint": {
      "coordinates": [
        -3,
        69
      ],
      "line1": "Address 1",
      "city": "City 2",
      "postalCode": "20000",
      "primary": false,
      "state": "state"
    }
  },
  {
    "status": "waiting",
    "startingPoint": {
      "coordinates": [
        73,
        56
      ],
      "line1": "Address 1",
      "city": "City 1",
      "postalCode": "10000",
      "primary": true,
      "state": "state"
    },
    "destinationPoint": {
      "coordinates": [
        -3,
        69
      ],
      "line1": "Address 1",
      "city": "City 2",
      "postalCode": "20000",
      "primary": false,
      "state": "state"
    }
  },
  {
    "status": "waiting",
    "startingPoint": {
      "coordinates": [
        73,
        56
      ],
      "line1": "Address 1",
      "city": "City 1",
      "postalCode": "10000",
      "primary": true,
      "state": "state"
    },
    "destinationPoint": {
      "coordinates": [
        -3,
        69
      ],
      "line1": "Address 1",
      "city": "City 2",
      "postalCode": "20000",
      "primary": false,
      "state": "state"
    }
  },
  {
    "status": "waiting",
    "startingPoint": {
      "coordinates": [
        73,
        56
      ],
      "line1": "Address 1",
      "city": "City 1",
      "postalCode": "10000",
      "primary": true,
      "state": "state"
    },
    "destinationPoint": {
      "coordinates": [
        -3,
        69
      ],
      "line1": "Address 1",
      "city": "City 2",
      "postalCode": "20000",
      "primary": false,
      "state": "state"
    }
  },
  {
    "status": "waiting",
    "startingPoint": {
      "coordinates": [
        73,
        56
      ],
      "line1": "Address 1",
      "city": "City 1",
      "postalCode": "10000",
      "primary": true,
      "state": "state"
    },
    "destinationPoint": {
      "coordinates": [
        -3,
        69
      ],
      "line1": "Address 1",
      "city": "City 2",
      "postalCode": "20000",
      "primary": false,
      "state": "state"
    }
  },
  {
    "status": "waiting",
    "startingPoint": {
      "coordinates": [
        73,
        56
      ],
      "line1": "Address 1",
      "city": "City 1",
      "postalCode": "10000",
      "primary": true,
      "state": "state"
    },
    "destinationPoint": {
      "coordinates": [
        -3,
        69
      ],
      "line1": "Address 1",
      "city": "City 2",
      "postalCode": "20000",
      "primary": false,
      "state": "state"
    }
  },
  {
    "status": "waiting",
    "startingPoint": {
      "coordinates": [
        73,
        56
      ],
      "line1": "Address 1",
      "city": "City 1",
      "postalCode": "10000",
      "primary": true,
      "state": "state"
    },
    "destinationPoint": {
      "coordinates": [
        -3,
        69
      ],
      "line1": "Address 1",
      "city": "City 2",
      "postalCode": "20000",
      "primary": false,
      "state": "state"
    }
  },
  {
    "status": "waiting",
    "startingPoint": {
      "coordinates": [
        73,
        56
      ],
      "line1": "Address 1",
      "city": "City 1",
      "postalCode": "10000",
      "primary": true,
      "state": "state"
    },
    "destinationPoint": {
      "coordinates": [
        -3,
        69
      ],
      "line1": "Address 1",
      "city": "City 2",
      "postalCode": "20000",
      "primary": false,
      "state": "state"
    }
  },
  {
    "status": "waiting",
    "startingPoint": {
      "coordinates": [
        73,
        56
      ],
      "line1": "Address 1",
      "city": "City 1",
      "postalCode": "10000",
      "primary": true,
      "state": "state"
    },
    "destinationPoint": {
      "coordinates": [
        -3,
        69
      ],
      "line1": "Address 1",
      "city": "City 2",
      "postalCode": "20000",
      "primary": false,
      "state": "state"
    }
  },
  {
    "status": "waiting",
    "startingPoint": {
      "coordinates": [
        73,
        56
      ],
      "line1": "Address 1",
      "city": "City 1",
      "postalCode": "10000",
      "primary": true,
      "state": "state"
    },
    "destinationPoint": {
      "coordinates": [
        -3,
        69
      ],
      "line1": "Address 1",
      "city": "City 2",
      "postalCode": "20000",
      "primary": false,
      "state": "state"
    }
  },
  {
    "status": "waiting",
    "startingPoint": {
      "coordinates": [
        73,
        56
      ],
      "line1": "Address 1",
      "city": "City 1",
      "postalCode": "10000",
      "primary": true,
      "state": "state"
    },
    "destinationPoint": {
      "coordinates": [
        -3,
        69
      ],
      "line1": "Address 1",
      "city": "City 2",
      "postalCode": "20000",
      "primary": false,
      "state": "state"
    }
  },
  {
    "status": "waiting",
    "startingPoint": {
      "coordinates": [
        73,
        56
      ],
      "line1": "Address 1",
      "city": "City 1",
      "postalCode": "10000",
      "primary": true,
      "state": "state"
    },
    "destinationPoint": {
      "coordinates": [
        -3,
        69
      ],
      "line1": "Address 1",
      "city": "City 2",
      "postalCode": "20000",
      "primary": false,
      "state": "state"
    }
  },
  {
    "status": "waiting",
    "startingPoint": {
      "coordinates": [
        73,
        56
      ],
      "line1": "Address 1",
      "city": "City 1",
      "postalCode": "10000",
      "primary": true,
      "state": "state"
    },
    "destinationPoint": {
      "coordinates": [
        -3,
        69
      ],
      "line1": "Address 1",
      "city": "City 2",
      "postalCode": "20000",
      "primary": false,
      "state": "state"
    }
  },
  {
    "status": "completed",
    "startingPoint": {
      "coordinates": [
        73,
        56
      ],
      "line1": "Address 1",
      "city": "City 1",
      "postalCode": "10000",
      "primary": true,
      "state": "state"
    },
    "destinationPoint": {
      "coordinates": [
        -3,
        69
      ],
      "line1": "Address 1",
      "city": "City 2",
      "postalCode": "20000",
      "primary": false,
      "state": "state"
    },
    "startedAt": "2016-11-01T02:08:01",
    "completedAt": "2016-11-01T05:53:23"
  },
  {
    "status": "completed",
    "startingPoint": {
      "coordinates": [
        73,
        56
      ],
      "line1": "Address 1",
      "city": "City 1",
      "postalCode": "10000",
      "primary": true,
      "state": "state"
    },
    "destinationPoint": {
      "coordinates": [
        -3,
        69
      ],
      "line1": "Address 1",
      "city": "City 2",
      "postalCode": "20000",
      "primary": false,
      "state": "state"
    },
    "startedAt": "2016-11-01T02:08:01",
    "completedAt": "2016-11-01T05:53:23"
  },
  {
    "status": "completed",
    "startingPoint": {
      "coordinates": [
        73,
        56
      ],
      "line1": "Address 1",
      "city": "City 1",
      "postalCode": "10000",
      "primary": true,
      "state": "state"
    },
    "destinationPoint": {
      "coordinates": [
        -3,
        69
      ],
      "line1": "Address 1",
      "city": "City 2",
      "postalCode": "20000",
      "primary": false,
      "state": "state"
    },
    "startedAt": "2016-11-01T02:08:01",
    "completedAt": "2016-11-01T05:53:23"
  },
  {
    "status": "completed",
    "startingPoint": {
      "coordinates": [
        73,
        56
      ],
      "line1": "Address 1",
      "city": "City 1",
      "postalCode": "10000",
      "primary": true,
      "state": "state"
    },
    "destinationPoint": {
      "coordinates": [
        -3,
        69
      ],
      "line1": "Address 1",
      "city": "City 2",
      "postalCode": "20000",
      "primary": false,
      "state": "state"
    },
    "startedAt": "2016-11-01T02:08:01",
    "completedAt": "2016-11-01T05:53:23"
  },
  {
    "status": "completed",
    "startingPoint": {
      "coordinates": [
        73,
        56
      ],
      "line1": "Address 1",
      "city": "City 1",
      "postalCode": "10000",
      "primary": true,
      "state": "state"
    },
    "destinationPoint": {
      "coordinates": [
        -3,
        69
      ],
      "line1": "Address 1",
      "city": "City 2",
      "postalCode": "20000",
      "primary": false,
      "state": "state"
    },
    "startedAt": "2016-11-01T02:08:01",
    "completedAt": "2016-11-01T05:53:23"
  },
  {
    "status": "completed",
    "startingPoint": {
      "coordinates": [
        73,
        56
      ],
      "line1": "Address 1",
      "city": "City 1",
      "postalCode": "10000",
      "primary": true,
      "state": "state"
    },
    "destinationPoint": {
      "coordinates": [
        -3,
        69
      ],
      "line1": "Address 1",
      "city": "City 2",
      "postalCode": "20000",
      "primary": false,
      "state": "state"
    },
    "startedAt": "2016-11-01T02:08:01",
    "completedAt": "2016-11-01T05:53:23"
  },
  {
    "status": "completed",
    "startingPoint": {
      "coordinates": [
        73,
        56
      ],
      "line1": "Address 1",
      "city": "City 1",
      "postalCode": "10000",
      "primary": true,
      "state": "state"
    },
    "destinationPoint": {
      "coordinates": [
        -3,
        69
      ],
      "line1": "Address 1",
      "city": "City 2",
      "postalCode": "20000",
      "primary": false,
      "state": "state"
    },
    "startedAt": "2016-11-01T02:08:01",
    "completedAt": "2016-11-01T05:53:23"
  },
  {
    "status": "completed",
    "startingPoint": {
      "coordinates": [
        73,
        56
      ],
      "line1": "Address 1",
      "city": "City 1",
      "postalCode": "10000",
      "primary": true,
      "state": "state"
    },
    "destinationPoint": {
      "coordinates": [
        -3,
        69
      ],
      "line1": "Address 1",
      "city": "City 2",
      "postalCode": "20000",
      "primary": false,
      "state": "state"
    },
    "startedAt": "2016-11-01T02:08:01",
    "completedAt": "2016-11-01T05:53:23"
  },
  {
    "status": "completed",
    "startingPoint": {
      "coordinates": [
        73,
        56
      ],
      "line1": "Address 1",
      "city": "City 1",
      "postalCode": "10000",
      "primary": true,
      "state": "state"
    },
    "destinationPoint": {
      "coordinates": [
        -3,
        69
      ],
      "line1": "Address 1",
      "city": "City 2",
      "postalCode": "20000",
      "primary": false,
      "state": "state"
    },
    "startedAt": "2016-11-01T02:08:01",
    "completedAt": "2016-11-01T05:53:23"
  },
  {
    "status": "completed",
    "startingPoint": {
      "coordinates": [
        73,
        56
      ],
      "line1": "Address 1",
      "city": "City 1",
      "postalCode": "10000",
      "primary": true,
      "state": "state"
    },
    "destinationPoint": {
      "coordinates": [
        -3,
        69
      ],
      "line1": "Address 1",
      "city": "City 2",
      "postalCode": "20000",
      "primary": false,
      "state": "state"
    },
    "startedAt": "2016-11-01T02:08:01",
    "completedAt": "2016-11-01T05:53:23"
  },
  {
    "status": "completed",
    "startingPoint": {
      "coordinates": [
        73,
        56
      ],
      "line1": "Address 1",
      "city": "City 1",
      "postalCode": "10000",
      "primary": true,
      "state": "state"
    },
    "destinationPoint": {
      "coordinates": [
        -3,
        69
      ],
      "line1": "Address 1",
      "city": "City 2",
      "postalCode": "20000",
      "primary": false,
      "state": "state"
    },
    "startedAt": "2016-11-01T02:08:01",
    "completedAt": "2016-11-01T05:53:23"
  },
  {
    "status": "completed",
    "startingPoint": {
      "coordinates": [
        73,
        56
      ],
      "line1": "Address 1",
      "city": "City 1",
      "postalCode": "10000",
      "primary": true,
      "state": "state"
    },
    "destinationPoint": {
      "coordinates": [
        -3,
        69
      ],
      "line1": "Address 1",
      "city": "City 2",
      "postalCode": "20000",
      "primary": false,
      "state": "state"
    },
    "startedAt": "2016-11-01T02:08:01",
    "completedAt": "2016-11-01T05:53:23"
  },
  {
    "status": "completed",
    "startingPoint": {
      "coordinates": [
        73,
        56
      ],
      "line1": "Address 1",
      "city": "City 1",
      "postalCode": "10000",
      "primary": true,
      "state": "state"
    },
    "destinationPoint": {
      "coordinates": [
        -3,
        69
      ],
      "line1": "Address 1",
      "city": "City 2",
      "postalCode": "20000",
      "primary": false,
      "state": "state"
    },
    "startedAt": "2016-11-01T02:08:01",
    "completedAt": "2016-11-01T05:53:23"
  },
  {
    "status": "completed",
    "startingPoint": {
      "coordinates": [
        73,
        56
      ],
      "line1": "Address 1",
      "city": "City 1",
      "postalCode": "10000",
      "primary": true,
      "state": "state"
    },
    "destinationPoint": {
      "coordinates": [
        -3,
        69
      ],
      "line1": "Address 1",
      "city": "City 2",
      "postalCode": "20000",
      "primary": false,
      "state": "state"
    },
    "startedAt": "2016-11-01T02:08:01",
    "completedAt": "2016-11-01T05:53:23"
  },
  {
    "status": "completed",
    "startingPoint": {
      "coordinates": [
        73,
        56
      ],
      "line1": "Address 1",
      "city": "City 1",
      "postalCode": "10000",
      "primary": true,
      "state": "state"
    },
    "destinationPoint": {
      "coordinates": [
        -3,
        69
      ],
      "line1": "Address 1",
      "city": "City 2",
      "postalCode": "20000",
      "primary": false,
      "state": "state"
    },
    "startedAt": "2016-11-01T02:08:01",
    "completedAt": "2016-11-01T05:53:23"
  },
  {
    "status": "completed",
    "startingPoint": {
      "coordinates": [
        73,
        56
      ],
      "line1": "Address 1",
      "city": "City 1",
      "postalCode": "10000",
      "primary": true,
      "state": "state"
    },
    "destinationPoint": {
      "coordinates": [
        -3,
        69
      ],
      "line1": "Address 1",
      "city": "City 2",
      "postalCode": "20000",
      "primary": false,
      "state": "state"
    },
    "startedAt": "2016-11-01T02:08:01",
    "completedAt": "2016-11-01T05:53:23"
  },
  {
    "status": "completed",
    "startingPoint": {
      "coordinates": [
        73,
        56
      ],
      "line1": "Address 1",
      "city": "City 1",
      "postalCode": "10000",
      "primary": true,
      "state": "state"
    },
    "destinationPoint": {
      "coordinates": [
        -3,
        69
      ],
      "line1": "Address 1",
      "city": "City 2",
      "postalCode": "20000",
      "primary": false,
      "state": "state"
    },
    "startedAt": "2016-11-01T02:08:01",
    "completedAt": "2016-11-01T05:53:23"
  },
  {
    "status": "completed",
    "startingPoint": {
      "coordinates": [
        73,
        56
      ],
      "line1": "Address 1",
      "city": "City 1",
      "postalCode": "10000",
      "primary": true,
      "state": "state"
    },
    "destinationPoint": {
      "coordinates": [
        -3,
        69
      ],
      "line1": "Address 1",
      "city": "City 2",
      "postalCode": "20000",
      "primary": false,
      "state": "state"
    },
    "startedAt": "2016-11-01T02:08:01",
    "completedAt": "2016-11-01T05:53:23"
  },
  {
    "status": "completed",
    "startingPoint": {
      "coordinates": [
        73,
        56
      ],
      "line1": "Address 1",
      "city": "City 1",
      "postalCode": "10000",
      "primary": true,
      "state": "state"
    },
    "destinationPoint": {
      "coordinates": [
        -3,
        69
      ],
      "line1": "Address 1",
      "city": "City 2",
      "postalCode": "20000",
      "primary": false,
      "state": "state"
    },
    "startedAt": "2016-11-01T02:08:01",
    "completedAt": "2016-11-01T05:53:23"
  },
  {
    "status": "completed",
    "startingPoint": {
      "coordinates": [
        73,
        56
      ],
      "line1": "Address 1",
      "city": "City 1",
      "postalCode": "10000",
      "primary": true,
      "state": "state"
    },
    "destinationPoint": {
      "coordinates": [
        -3,
        69
      ],
      "line1": "Address 1",
      "city": "City 2",
      "postalCode": "20000",
      "primary": false,
      "state": "state"
    },
    "startedAt": "2016-11-01T02:08:01",
    "completedAt": "2016-11-01T05:53:23"
  },
  {
    "status": "completed",
    "startingPoint": {
      "coordinates": [
        73,
        56
      ],
      "line1": "Address 1",
      "city": "City 1",
      "postalCode": "10000",
      "primary": true,
      "state": "state"
    },
    "destinationPoint": {
      "coordinates": [
        -3,
        69
      ],
      "line1": "Address 1",
      "city": "City 2",
      "postalCode": "20000",
      "primary": false,
      "state": "state"
    },
    "startedAt": "2016-11-01T02:08:01",
    "completedAt": "2016-11-01T05:53:23"
  },
  {
    "status": "completed",
    "startingPoint": {
      "coordinates": [
        73,
        56
      ],
      "line1": "Address 1",
      "city": "City 1",
      "postalCode": "10000",
      "primary": true,
      "state": "state"
    },
    "destinationPoint": {
      "coordinates": [
        -3,
        69
      ],
      "line1": "Address 1",
      "city": "City 2",
      "postalCode": "20000",
      "primary": false,
      "state": "state"
    },
    "startedAt": "2016-11-01T02:08:01",
    "completedAt": "2016-11-01T05:53:23"
  },
  {
    "status": "completed",
    "startingPoint": {
      "coordinates": [
        73,
        56
      ],
      "line1": "Address 1",
      "city": "City 1",
      "postalCode": "10000",
      "primary": true,
      "state": "state"
    },
    "destinationPoint": {
      "coordinates": [
        -3,
        69
      ],
      "line1": "Address 1",
      "city": "City 2",
      "postalCode": "20000",
      "primary": false,
      "state": "state"
    },
    "startedAt": "2016-11-01T02:08:01",
    "completedAt": "2016-11-01T05:53:23"
  },
  {
    "status": "completed",
    "startingPoint": {
      "coordinates": [
        73,
        56
      ],
      "line1": "Address 1",
      "city": "City 1",
      "postalCode": "10000",
      "primary": true,
      "state": "state"
    },
    "destinationPoint": {
      "coordinates": [
        -3,
        69
      ],
      "line1": "Address 1",
      "city": "City 2",
      "postalCode": "20000",
      "primary": false,
      "state": "state"
    },
    "startedAt": "2016-11-01T02:08:01",
    "completedAt": "2016-11-01T05:53:23"
  },
  {
    "status": "completed",
    "startingPoint": {
      "coordinates": [
        73,
        56
      ],
      "line1": "Address 1",
      "city": "City 1",
      "postalCode": "10000",
      "primary": true,
      "state": "state"
    },
    "destinationPoint": {
      "coordinates": [
        -3,
        69
      ],
      "line1": "Address 1",
      "city": "City 2",
      "postalCode": "20000",
      "primary": false,
      "state": "state"
    },
    "startedAt": "2016-11-01T02:08:01",
    "completedAt": "2016-11-01T05:53:23"
  },
  {
    "status": "completed",
    "startingPoint": {
      "coordinates": [
        73,
        56
      ],
      "line1": "Address 1",
      "city": "City 1",
      "postalCode": "10000",
      "primary": true,
      "state": "state"
    },
    "destinationPoint": {
      "coordinates": [
        -3,
        69
      ],
      "line1": "Address 1",
      "city": "City 2",
      "postalCode": "20000",
      "primary": false,
      "state": "state"
    },
    "startedAt": "2016-11-01T02:08:01",
    "completedAt": "2016-11-01T05:53:23"
  },
  {
    "status": "completed",
    "startingPoint": {
      "coordinates": [
        73,
        56
      ],
      "line1": "Address 1",
      "city": "City 1",
      "postalCode": "10000",
      "primary": true,
      "state": "state"
    },
    "destinationPoint": {
      "coordinates": [
        -3,
        69
      ],
      "line1": "Address 1",
      "city": "City 2",
      "postalCode": "20000",
      "primary": false,
      "state": "state"
    },
    "startedAt": "2016-11-01T02:08:01",
    "completedAt": "2016-11-01T05:53:23"
  },
  {
    "status": "completed",
    "startingPoint": {
      "coordinates": [
        73,
        56
      ],
      "line1": "Address 1",
      "city": "City 1",
      "postalCode": "10000",
      "primary": true,
      "state": "state"
    },
    "destinationPoint": {
      "coordinates": [
        -3,
        69
      ],
      "line1": "Address 1",
      "city": "City 2",
      "postalCode": "20000",
      "primary": false,
      "state": "state"
    },
    "startedAt": "2016-11-01T02:08:01",
    "completedAt": "2016-11-01T05:53:23"
  },
  {
    "status": "completed",
    "startingPoint": {
      "coordinates": [
        73,
        56
      ],
      "line1": "Address 1",
      "city": "City 1",
      "postalCode": "10000",
      "primary": true,
      "state": "state"
    },
    "destinationPoint": {
      "coordinates": [
        -3,
        69
      ],
      "line1": "Address 1",
      "city": "City 2",
      "postalCode": "20000",
      "primary": false,
      "state": "state"
    },
    "startedAt": "2016-11-01T02:08:01",
    "completedAt": "2016-11-01T05:53:23"
  },
  {
    "status": "completed",
    "startingPoint": {
      "coordinates": [
        73,
        56
      ],
      "line1": "Address 1",
      "city": "City 1",
      "postalCode": "10000",
      "primary": true,
      "state": "state"
    },
    "destinationPoint": {
      "coordinates": [
        -3,
        69
      ],
      "line1": "Address 1",
      "city": "City 2",
      "postalCode": "20000",
      "primary": false,
      "state": "state"
    },
    "startedAt": "2016-11-01T02:08:01",
    "completedAt": "2016-11-01T05:53:23"
  },
  {
    "status": "waiting",
    "startingPoint": {
      "coordinates": [
        73,
        56
      ],
      "line1": "Address 1",
      "city": "City 1",
      "postalCode": "10000",
      "primary": true,
      "state": "state"
    },
    "destinationPoint": {
      "coordinates": [
        -3,
        69
      ],
      "line1": "Address 1",
      "city": "City 2",
      "postalCode": "20000",
      "primary": false,
      "state": "state"
    }
  },
  {
    "status": "waiting",
    "startingPoint": {
      "coordinates": [
        73,
        56
      ],
      "line1": "Address 1",
      "city": "City 1",
      "postalCode": "10000",
      "primary": true,
      "state": "state"
    },
    "destinationPoint": {
      "coordinates": [
        -3,
        69
      ],
      "line1": "Address 1",
      "city": "City 2",
      "postalCode": "20000",
      "primary": false,
      "state": "state"
    }
  },
  {
    "status": "waiting",
    "startingPoint": {
      "coordinates": [
        73,
        56
      ],
      "line1": "Address 1",
      "city": "City 1",
      "postalCode": "10000",
      "primary": true,
      "state": "state"
    },
    "destinationPoint": {
      "coordinates": [
        -3,
        69
      ],
      "line1": "Address 1",
      "city": "City 2",
      "postalCode": "20000",
      "primary": false,
      "state": "state"
    }
  },
  {
    "status": "waiting",
    "startingPoint": {
      "coordinates": [
        73,
        56
      ],
      "line1": "Address 1",
      "city": "City 1",
      "postalCode": "10000",
      "primary": true,
      "state": "state"
    },
    "destinationPoint": {
      "coordinates": [
        -3,
        69
      ],
      "line1": "Address 1",
      "city": "City 2",
      "postalCode": "20000",
      "primary": false,
      "state": "state"
    }
  },
  {
    "status": "waiting",
    "startingPoint": {
      "coordinates": [
        73,
        56
      ],
      "line1": "Address 1",
      "city": "City 1",
      "postalCode": "10000",
      "primary": true,
      "state": "state"
    },
    "destinationPoint": {
      "coordinates": [
        -3,
        69
      ],
      "line1": "Address 1",
      "city": "City 2",
      "postalCode": "20000",
      "primary": false,
      "state": "state"
    }
  },
  {
    "status": "waiting",
    "startingPoint": {
      "coordinates": [
        73,
        56
      ],
      "line1": "Address 1",
      "city": "City 1",
      "postalCode": "10000",
      "primary": true,
      "state": "state"
    },
    "destinationPoint": {
      "coordinates": [
        -3,
        69
      ],
      "line1": "Address 1",
      "city": "City 2",
      "postalCode": "20000",
      "primary": false,
      "state": "state"
    }
  },
  {
    "status": "waiting",
    "startingPoint": {
      "coordinates": [
        73,
        56
      ],
      "line1": "Address 1",
      "city": "City 1",
      "postalCode": "10000",
      "primary": true,
      "state": "state"
    },
    "destinationPoint": {
      "coordinates": [
        -3,
        69
      ],
      "line1": "Address 1",
      "city": "City 2",
      "postalCode": "20000",
      "primary": false,
      "state": "state"
    }
  },
  {
    "status": "waiting",
    "startingPoint": {
      "coordinates": [
        73,
        56
      ],
      "line1": "Address 1",
      "city": "City 1",
      "postalCode": "10000",
      "primary": true,
      "state": "state"
    },
    "destinationPoint": {
      "coordinates": [
        -3,
        69
      ],
      "line1": "Address 1",
      "city": "City 2",
      "postalCode": "20000",
      "primary": false,
      "state": "state"
    }
  },
  {
    "status": "waiting",
    "startingPoint": {
      "coordinates": [
        73,
        56
      ],
      "line1": "Address 1",
      "city": "City 1",
      "postalCode": "10000",
      "primary": true,
      "state": "state"
    },
    "destinationPoint": {
      "coordinates": [
        -3,
        69
      ],
      "line1": "Address 1",
      "city": "City 2",
      "postalCode": "20000",
      "primary": false,
      "state": "state"
    }
  },
  {
    "status": "waiting",
    "startingPoint": {
      "coordinates": [
        73,
        56
      ],
      "line1": "Address 1",
      "city": "City 1",
      "postalCode": "10000",
      "primary": true,
      "state": "state"
    },
    "destinationPoint": {
      "coordinates": [
        -3,
        69
      ],
      "line1": "Address 1",
      "city": "City 2",
      "postalCode": "20000",
      "primary": false,
      "state": "state"
    }
  },
  {
    "status": "waiting",
    "startingPoint": {
      "coordinates": [
        73,
        56
      ],
      "line1": "Address 1",
      "city": "City 1",
      "postalCode": "10000",
      "primary": true,
      "state": "state"
    },
    "destinationPoint": {
      "coordinates": [
        -3,
        69
      ],
      "line1": "Address 1",
      "city": "City 2",
      "postalCode": "20000",
      "primary": false,
      "state": "state"
    }
  },
  {
    "status": "waiting",
    "startingPoint": {
      "coordinates": [
        73,
        56
      ],
      "line1": "Address 1",
      "city": "City 1",
      "postalCode": "10000",
      "primary": true,
      "state": "state"
    },
    "destinationPoint": {
      "coordinates": [
        -3,
        69
      ],
      "line1": "Address 1",
      "city": "City 2",
      "postalCode": "20000",
      "primary": false,
      "state": "state"
    }
  },
  {
    "status": "waiting",
    "startingPoint": {
      "coordinates": [
        73,
        56
      ],
      "line1": "Address 1",
      "city": "City 1",
      "postalCode": "10000",
      "primary": true,
      "state": "state"
    },
    "destinationPoint": {
      "coordinates": [
        -3,
        69
      ],
      "line1": "Address 1",
      "city": "City 2",
      "postalCode": "20000",
      "primary": false,
      "state": "state"
    }
  },
  {
    "status": "waiting",
    "startingPoint": {
      "coordinates": [
        73,
        56
      ],
      "line1": "Address 1",
      "city": "City 1",
      "postalCode": "10000",
      "primary": true,
      "state": "state"
    },
    "destinationPoint": {
      "coordinates": [
        -3,
        69
      ],
      "line1": "Address 1",
      "city": "City 2",
      "postalCode": "20000",
      "primary": false,
      "state": "state"
    }
  },
  {
    "status": "waiting",
    "startingPoint": {
      "coordinates": [
        73,
        56
      ],
      "line1": "Address 1",
      "city": "City 1",
      "postalCode": "10000",
      "primary": true,
      "state": "state"
    },
    "destinationPoint": {
      "coordinates": [
        -3,
        69
      ],
      "line1": "Address 1",
      "city": "City 2",
      "postalCode": "20000",
      "primary": false,
      "state": "state"
    }
  },
  {
    "status": "waiting",
    "startingPoint": {
      "coordinates": [
        73,
        56
      ],
      "line1": "Address 1",
      "city": "City 1",
      "postalCode": "10000",
      "primary": true,
      "state": "state"
    },
    "destinationPoint": {
      "coordinates": [
        -3,
        69
      ],
      "line1": "Address 1",
      "city": "City 2",
      "postalCode": "20000",
      "primary": false,
      "state": "state"
    }
  },
  {
    "status": "waiting",
    "startingPoint": {
      "coordinates": [
        73,
        56
      ],
      "line1": "Address 1",
      "city": "City 1",
      "postalCode": "10000",
      "primary": true,
      "state": "state"
    },
    "destinationPoint": {
      "coordinates": [
        -3,
        69
      ],
      "line1": "Address 1",
      "city": "City 2",
      "postalCode": "20000",
      "primary": false,
      "state": "state"
    }
  },
  {
    "status": "waiting",
    "startingPoint": {
      "coordinates": [
        73,
        56
      ],
      "line1": "Address 1",
      "city": "City 1",
      "postalCode": "10000",
      "primary": true,
      "state": "state"
    },
    "destinationPoint": {
      "coordinates": [
        -3,
        69
      ],
      "line1": "Address 1",
      "city": "City 2",
      "postalCode": "20000",
      "primary": false,
      "state": "state"
    }
  },
  {
    "status": "waiting",
    "startingPoint": {
      "coordinates": [
        73,
        56
      ],
      "line1": "Address 1",
      "city": "City 1",
      "postalCode": "10000",
      "primary": true,
      "state": "state"
    },
    "destinationPoint": {
      "coordinates": [
        -3,
        69
      ],
      "line1": "Address 1",
      "city": "City 2",
      "postalCode": "20000",
      "primary": false,
      "state": "state"
    }
  },
  {
    "status": "waiting",
    "startingPoint": {
      "coordinates": [
        73,
        56
      ],
      "line1": "Address 1",
      "city": "City 1",
      "postalCode": "10000",
      "primary": true,
      "state": "state"
    },
    "destinationPoint": {
      "coordinates": [
        -3,
        69
      ],
      "line1": "Address 1",
      "city": "City 2",
      "postalCode": "20000",
      "primary": false,
      "state": "state"
    }
  },
  {
    "status": "waiting",
    "startingPoint": {
      "coordinates": [
        73,
        56
      ],
      "line1": "Address 1",
      "city": "City 1",
      "postalCode": "10000",
      "primary": true,
      "state": "state"
    },
    "destinationPoint": {
      "coordinates": [
        -3,
        69
      ],
      "line1": "Address 1",
      "city": "City 2",
      "postalCode": "20000",
      "primary": false,
      "state": "state"
    }
  },
  {
    "status": "waiting",
    "startingPoint": {
      "coordinates": [
        73,
        56
      ],
      "line1": "Address 1",
      "city": "City 1",
      "postalCode": "10000",
      "primary": true,
      "state": "state"
    },
    "destinationPoint": {
      "coordinates": [
        -3,
        69
      ],
      "line1": "Address 1",
      "city": "City 2",
      "postalCode": "20000",
      "primary": false,
      "state": "state"
    }
  },
  {
    "status": "waiting",
    "startingPoint": {
      "coordinates": [
        73,
        56
      ],
      "line1": "Address 1",
      "city": "City 1",
      "postalCode": "10000",
      "primary": true,
      "state": "state"
    },
    "destinationPoint": {
      "coordinates": [
        -3,
        69
      ],
      "line1": "Address 1",
      "city": "City 2",
      "postalCode": "20000",
      "primary": false,
      "state": "state"
    }
  },
  {
    "status": "waiting",
    "startingPoint": {
      "coordinates": [
        73,
        56
      ],
      "line1": "Address 1",
      "city": "City 1",
      "postalCode": "10000",
      "primary": true,
      "state": "state"
    },
    "destinationPoint": {
      "coordinates": [
        -3,
        69
      ],
      "line1": "Address 1",
      "city": "City 2",
      "postalCode": "20000",
      "primary": false,
      "state": "state"
    }
  },
  {
    "status": "waiting",
    "startingPoint": {
      "coordinates": [
        73,
        56
      ],
      "line1": "Address 1",
      "city": "City 1",
      "postalCode": "10000",
      "primary": true,
      "state": "state"
    },
    "destinationPoint": {
      "coordinates": [
        -3,
        69
      ],
      "line1": "Address 1",
      "city": "City 2",
      "postalCode": "20000",
      "primary": false,
      "state": "state"
    }
  },
  {
    "status": "waiting",
    "startingPoint": {
      "coordinates": [
        73,
        56
      ],
      "line1": "Address 1",
      "city": "City 1",
      "postalCode": "10000",
      "primary": true,
      "state": "state"
    },
    "destinationPoint": {
      "coordinates": [
        -3,
        69
      ],
      "line1": "Address 1",
      "city": "City 2",
      "postalCode": "20000",
      "primary": false,
      "state": "state"
    }
  },
  {
    "status": "waiting",
    "startingPoint": {
      "coordinates": [
        73,
        56
      ],
      "line1": "Address 1",
      "city": "City 1",
      "postalCode": "10000",
      "primary": true,
      "state": "state"
    },
    "destinationPoint": {
      "coordinates": [
        -3,
        69
      ],
      "line1": "Address 1",
      "city": "City 2",
      "postalCode": "20000",
      "primary": false,
      "state": "state"
    }
  },
  {
    "status": "waiting",
    "startingPoint": {
      "coordinates": [
        73,
        56
      ],
      "line1": "Address 1",
      "city": "City 1",
      "postalCode": "10000",
      "primary": true,
      "state": "state"
    },
    "destinationPoint": {
      "coordinates": [
        -3,
        69
      ],
      "line1": "Address 1",
      "city": "City 2",
      "postalCode": "20000",
      "primary": false,
      "state": "state"
    }
  },
  {
    "status": "waiting",
    "startingPoint": {
      "coordinates": [
        73,
        56
      ],
      "line1": "Address 1",
      "city": "City 1",
      "postalCode": "10000",
      "primary": true,
      "state": "state"
    },
    "destinationPoint": {
      "coordinates": [
        -3,
        69
      ],
      "line1": "Address 1",
      "city": "City 2",
      "postalCode": "20000",
      "primary": false,
      "state": "state"
    }
  },
  {
    "status": "waiting",
    "startingPoint": {
      "coordinates": [
        73,
        56
      ],
      "line1": "Address 1",
      "city": "City 1",
      "postalCode": "10000",
      "primary": true,
      "state": "state"
    },
    "destinationPoint": {
      "coordinates": [
        -3,
        69
      ],
      "line1": "Address 1",
      "city": "City 2",
      "postalCode": "20000",
      "primary": false,
      "state": "state"
    }
  },
  {
    "status": "waiting",
    "startingPoint": {
      "coordinates": [
        73,
        56
      ],
      "line1": "Address 1",
      "city": "City 1",
      "postalCode": "10000",
      "primary": true,
      "state": "state"
    },
    "destinationPoint": {
      "coordinates": [
        -3,
        69
      ],
      "line1": "Address 1",
      "city": "City 2",
      "postalCode": "20000",
      "primary": false,
      "state": "state"
    }
  },
  {
    "status": "waiting",
    "startingPoint": {
      "coordinates": [
        73,
        56
      ],
      "line1": "Address 1",
      "city": "City 1",
      "postalCode": "10000",
      "primary": true,
      "state": "state"
    },
    "destinationPoint": {
      "coordinates": [
        -3,
        69
      ],
      "line1": "Address 1",
      "city": "City 2",
      "postalCode": "20000",
      "primary": false,
      "state": "state"
    }
  },
  {
    "status": "waiting",
    "startingPoint": {
      "coordinates": [
        73,
        56
      ],
      "line1": "Address 1",
      "city": "City 1",
      "postalCode": "10000",
      "primary": true,
      "state": "state"
    },
    "destinationPoint": {
      "coordinates": [
        -3,
        69
      ],
      "line1": "Address 1",
      "city": "City 2",
      "postalCode": "20000",
      "primary": false,
      "state": "state"
    }
  },
  {
    "status": "waiting",
    "startingPoint": {
      "coordinates": [
        73,
        56
      ],
      "line1": "Address 1",
      "city": "City 1",
      "postalCode": "10000",
      "primary": true,
      "state": "state"
    },
    "destinationPoint": {
      "coordinates": [
        -3,
        69
      ],
      "line1": "Address 1",
      "city": "City 2",
      "postalCode": "20000",
      "primary": false,
      "state": "state"
    }
  },
  {
    "status": "waiting",
    "startingPoint": {
      "coordinates": [
        73,
        56
      ],
      "line1": "Address 1",
      "city": "City 1",
      "postalCode": "10000",
      "primary": true,
      "state": "state"
    },
    "destinationPoint": {
      "coordinates": [
        -3,
        69
      ],
      "line1": "Address 1",
      "city": "City 2",
      "postalCode": "20000",
      "primary": false,
      "state": "state"
    }
  },
  {
    "status": "waiting",
    "startingPoint": {
      "coordinates": [
        73,
        56
      ],
      "line1": "Address 1",
      "city": "City 1",
      "postalCode": "10000",
      "primary": true,
      "state": "state"
    },
    "destinationPoint": {
      "coordinates": [
        -3,
        69
      ],
      "line1": "Address 1",
      "city": "City 2",
      "postalCode": "20000",
      "primary": false,
      "state": "state"
    }
  },
  {
    "status": "completed",
    "startingPoint": {
      "coordinates": [
        73,
        56
      ],
      "line1": "Address 1",
      "city": "City 1",
      "postalCode": "10000",
      "primary": true,
      "state": "state"
    },
    "destinationPoint": {
      "coordinates": [
        -3,
        69
      ],
      "line1": "Address 1",
      "city": "City 2",
      "postalCode": "20000",
      "primary": false,
      "state": "state"
    },
    "startedAt": "2016-11-01T02:08:01",
    "completedAt": "2016-11-01T05:53:23"
  },
  {
    "status": "completed",
    "startingPoint": {
      "coordinates": [
        73,
        56
      ],
      "line1": "Address 1",
      "city": "City 1",
      "postalCode": "10000",
      "primary": true,
      "state": "state"
    },
    "destinationPoint": {
      "coordinates": [
        -3,
        69
      ],
      "line1": "Address 1",
      "city": "City 2",
      "postalCode": "20000",
      "primary": false,
      "state": "state"
    },
    "startedAt": "2016-11-01T02:08:01",
    "completedAt": "2016-11-01T05:53:23"
  },
  {
    "status": "completed",
    "startingPoint": {
      "coordinates": [
        73,
        56
      ],
      "line1": "Address 1",
      "city": "City 1",
      "postalCode": "10000",
      "primary": true,
      "state": "state"
    },
    "destinationPoint": {
      "coordinates": [
        -3,
        69
      ],
      "line1": "Address 1",
      "city": "City 2",
      "postalCode": "20000",
      "primary": false,
      "state": "state"
    },
    "startedAt": "2016-11-01T02:08:01",
    "completedAt": "2016-11-01T05:53:23"
  },
  {
    "status": "completed",
    "startingPoint": {
      "coordinates": [
        73,
        56
      ],
      "line1": "Address 1",
      "city": "City 1",
      "postalCode": "10000",
      "primary": true,
      "state": "state"
    },
    "destinationPoint": {
      "coordinates": [
        -3,
        69
      ],
      "line1": "Address 1",
      "city": "City 2",
      "postalCode": "20000",
      "primary": false,
      "state": "state"
    },
    "startedAt": "2016-11-01T02:08:01",
    "completedAt": "2016-11-01T05:53:23"
  },
  {
    "status": "completed",
    "startingPoint": {
      "coordinates": [
        73,
        56
      ],
      "line1": "Address 1",
      "city": "City 1",
      "postalCode": "10000",
      "primary": true,
      "state": "state"
    },
    "destinationPoint": {
      "coordinates": [
        -3,
        69
      ],
      "line1": "Address 1",
      "city": "City 2",
      "postalCode": "20000",
      "primary": false,
      "state": "state"
    },
    "startedAt": "2016-11-01T02:08:01",
    "completedAt": "2016-11-01T05:53:23"
  },
  {
    "status": "completed",
    "startingPoint": {
      "coordinates": [
        73,
        56
      ],
      "line1": "Address 1",
      "city": "City 1",
      "postalCode": "10000",
      "primary": true,
      "state": "state"
    },
    "destinationPoint": {
      "coordinates": [
        -3,
        69
      ],
      "line1": "Address 1",
      "city": "City 2",
      "postalCode": "20000",
      "primary": false,
      "state": "state"
    },
    "startedAt": "2016-11-01T02:08:01",
    "completedAt": "2016-11-01T05:53:23"
  },
  {
    "status": "completed",
    "startingPoint": {
      "coordinates": [
        73,
        56
      ],
      "line1": "Address 1",
      "city": "City 1",
      "postalCode": "10000",
      "primary": true,
      "state": "state"
    },
    "destinationPoint": {
      "coordinates": [
        -3,
        69
      ],
      "line1": "Address 1",
      "city": "City 2",
      "postalCode": "20000",
      "primary": false,
      "state": "state"
    },
    "startedAt": "2016-11-01T02:08:01",
    "completedAt": "2016-11-01T05:53:23"
  },
  {
    "status": "completed",
    "startingPoint": {
      "coordinates": [
        73,
        56
      ],
      "line1": "Address 1",
      "city": "City 1",
      "postalCode": "10000",
      "primary": true,
      "state": "state"
    },
    "destinationPoint": {
      "coordinates": [
        -3,
        69
      ],
      "line1": "Address 1",
      "city": "City 2",
      "postalCode": "20000",
      "primary": false,
      "state": "state"
    },
    "startedAt": "2016-11-01T02:08:01",
    "completedAt": "2016-11-01T05:53:23"
  },
  {
    "status": "completed",
    "startingPoint": {
      "coordinates": [
        73,
        56
      ],
      "line1": "Address 1",
      "city": "City 1",
      "postalCode": "10000",
      "primary": true,
      "state": "state"
    },
    "destinationPoint": {
      "coordinates": [
        -3,
        69
      ],
      "line1": "Address 1",
      "city": "City 2",
      "postalCode": "20000",
      "primary": false,
      "state": "state"
    },
    "startedAt": "2016-11-01T02:08:01",
    "completedAt": "2016-11-01T05:53:23"
  },
  {
    "status": "completed",
    "startingPoint": {
      "coordinates": [
        73,
        56
      ],
      "line1": "Address 1",
      "city": "City 1",
      "postalCode": "10000",
      "primary": true,
      "state": "state"
    },
    "destinationPoint": {
      "coordinates": [
        -3,
        69
      ],
      "line1": "Address 1",
      "city": "City 2",
      "postalCode": "20000",
      "primary": false,
      "state": "state"
    },
    "startedAt": "2016-11-01T02:08:01",
    "completedAt": "2016-11-01T05:53:23"
  },
  {
    "status": "completed",
    "startingPoint": {
      "coordinates": [
        73,
        56
      ],
      "line1": "Address 1",
      "city": "City 1",
      "postalCode": "10000",
      "primary": true,
      "state": "state"
    },
    "destinationPoint": {
      "coordinates": [
        -3,
        69
      ],
      "line1": "Address 1",
      "city": "City 2",
      "postalCode": "20000",
      "primary": false,
      "state": "state"
    },
    "startedAt": "2016-11-01T02:08:01",
    "completedAt": "2016-11-01T05:53:23"
  },
  {
    "status": "completed",
    "startingPoint": {
      "coordinates": [
        73,
        56
      ],
      "line1": "Address 1",
      "city": "City 1",
      "postalCode": "10000",
      "primary": true,
      "state": "state"
    },
    "destinationPoint": {
      "coordinates": [
        -3,
        69
      ],
      "line1": "Address 1",
      "city": "City 2",
      "postalCode": "20000",
      "primary": false,
      "state": "state"
    },
    "startedAt": "2016-11-01T02:08:01",
    "completedAt": "2016-11-01T05:53:23"
  },
  {
    "status": "completed",
    "startingPoint": {
      "coordinates": [
        73,
        56
      ],
      "line1": "Address 1",
      "city": "City 1",
      "postalCode": "10000",
      "primary": true,
      "state": "state"
    },
    "destinationPoint": {
      "coordinates": [
        -3,
        69
      ],
      "line1": "Address 1",
      "city": "City 2",
      "postalCode": "20000",
      "primary": false,
      "state": "state"
    },
    "startedAt": "2016-11-01T02:08:01",
    "completedAt": "2016-11-01T05:53:23"
  },
  {
    "status": "completed",
    "startingPoint": {
      "coordinates": [
        73,
        56
      ],
      "line1": "Address 1",
      "city": "City 1",
      "postalCode": "10000",
      "primary": true,
      "state": "state"
    },
    "destinationPoint": {
      "coordinates": [
        -3,
        69
      ],
      "line1": "Address 1",
      "city": "City 2",
      "postalCode": "20000",
      "primary": false,
      "state": "state"
    },
    "startedAt": "2016-11-01T02:08:01",
    "completedAt": "2016-11-01T05:53:23"
  },
  {
    "status": "completed",
    "startingPoint": {
      "coordinates": [
        73,
        56
      ],
      "line1": "Address 1",
      "city": "City 1",
      "postalCode": "10000",
      "primary": true,
      "state": "state"
    },
    "destinationPoint": {
      "coordinates": [
        -3,
        69
      ],
      "line1": "Address 1",
      "city": "City 2",
      "postalCode": "20000",
      "primary": false,
      "state": "state"
    },
    "startedAt": "2016-11-01T02:08:01",
    "completedAt": "2016-11-01T05:53:23"
  },
  {
    "status": "completed",
    "startingPoint": {
      "coordinates": [
        73,
        56
      ],
      "line1": "Address 1",
      "city": "City 1",
      "postalCode": "10000",
      "primary": true,
      "state": "state"
    },
    "destinationPoint": {
      "coordinates": [
        -3,
        69
      ],
      "line1": "Address 1",
      "city": "City 2",
      "postalCode": "20000",
      "primary": false,
      "state": "state"
    },
    "startedAt": "2016-11-01T02:08:01",
    "completedAt": "2016-11-01T05:53:23"
  },
  {
    "status": "completed",
    "startingPoint": {
      "coordinates": [
        73,
        56
      ],
      "line1": "Address 1",
      "city": "City 1",
      "postalCode": "10000",
      "primary": true,
      "state": "state"
    },
    "destinationPoint": {
      "coordinates": [
        -3,
        69
      ],
      "line1": "Address 1",
      "city": "City 2",
      "postalCode": "20000",
      "primary": false,
      "state": "state"
    },
    "startedAt": "2016-11-01T02:08:01",
    "completedAt": "2016-11-01T05:53:23"
  },
  {
    "status": "completed",
    "startingPoint": {
      "coordinates": [
        73,
        56
      ],
      "line1": "Address 1",
      "city": "City 1",
      "postalCode": "10000",
      "primary": true,
      "state": "state"
    },
    "destinationPoint": {
      "coordinates": [
        -3,
        69
      ],
      "line1": "Address 1",
      "city": "City 2",
      "postalCode": "20000",
      "primary": false,
      "state": "state"
    },
    "startedAt": "2016-11-01T02:08:01",
    "completedAt": "2016-11-01T05:53:23"
  },
  {
    "status": "completed",
    "startingPoint": {
      "coordinates": [
        73,
        56
      ],
      "line1": "Address 1",
      "city": "City 1",
      "postalCode": "10000",
      "primary": true,
      "state": "state"
    },
    "destinationPoint": {
      "coordinates": [
        -3,
        69
      ],
      "line1": "Address 1",
      "city": "City 2",
      "postalCode": "20000",
      "primary": false,
      "state": "state"
    },
    "startedAt": "2016-11-01T02:08:01",
    "completedAt": "2016-11-01T05:53:23"
  },
  {
    "status": "completed",
    "startingPoint": {
      "coordinates": [
        73,
        56
      ],
      "line1": "Address 1",
      "city": "City 1",
      "postalCode": "10000",
      "primary": true,
      "state": "state"
    },
    "destinationPoint": {
      "coordinates": [
        -3,
        69
      ],
      "line1": "Address 1",
      "city": "City 2",
      "postalCode": "20000",
      "primary": false,
      "state": "state"
    },
    "startedAt": "2016-11-01T02:08:01",
    "completedAt": "2016-11-01T05:53:23"
  },
  {
    "status": "completed",
    "startingPoint": {
      "coordinates": [
        73,
        56
      ],
      "line1": "Address 1",
      "city": "City 1",
      "postalCode": "10000",
      "primary": true,
      "state": "state"
    },
    "destinationPoint": {
      "coordinates": [
        -3,
        69
      ],
      "line1": "Address 1",
      "city": "City 2",
      "postalCode": "20000",
      "primary": false,
      "state": "state"
    },
    "startedAt": "2016-11-01T02:08:01",
    "completedAt": "2016-11-01T05:53:23"
  },
  {
    "status": "completed",
    "startingPoint": {
      "coordinates": [
        73,
        56
      ],
      "line1": "Address 1",
      "city": "City 1",
      "postalCode": "10000",
      "primary": true,
      "state": "state"
    },
    "destinationPoint": {
      "coordinates": [
        -3,
        69
      ],
      "line1": "Address 1",
      "city": "City 2",
      "postalCode": "20000",
      "primary": false,
      "state": "state"
    },
    "startedAt": "2016-11-01T02:08:01",
    "completedAt": "2016-11-01T05:53:23"
  },
  {
    "status": "completed",
    "startingPoint": {
      "coordinates": [
        73,
        56
      ],
      "line1": "Address 1",
      "city": "City 1",
      "postalCode": "10000",
      "primary": true,
      "state": "state"
    },
    "destinationPoint": {
      "coordinates": [
        -3,
        69
      ],
      "line1": "Address 1",
      "city": "City 2",
      "postalCode": "20000",
      "primary": false,
      "state": "state"
    },
    "startedAt": "2016-11-01T02:08:01",
    "completedAt": "2016-11-01T05:53:23"
  },
  {
    "status": "completed",
    "startingPoint": {
      "coordinates": [
        73,
        56
      ],
      "line1": "Address 1",
      "city": "City 1",
      "postalCode": "10000",
      "primary": true,
      "state": "state"
    },
    "destinationPoint": {
      "coordinates": [
        -3,
        69
      ],
      "line1": "Address 1",
      "city": "City 2",
      "postalCode": "20000",
      "primary": false,
      "state": "state"
    },
    "startedAt": "2016-11-01T02:08:01",
    "completedAt": "2016-11-01T05:53:23"
  },
  {
    "status": "completed",
    "startingPoint": {
      "coordinates": [
        73,
        56
      ],
      "line1": "Address 1",
      "city": "City 1",
      "postalCode": "10000",
      "primary": true,
      "state": "state"
    },
    "destinationPoint": {
      "coordinates": [
        -3,
        69
      ],
      "line1": "Address 1",
      "city": "City 2",
      "postalCode": "20000",
      "primary": false,
      "state": "state"
    },
    "startedAt": "2016-11-01T02:08:01",
    "completedAt": "2016-11-01T05:53:23"
  },
  {
    "status": "completed",
    "startingPoint": {
      "coordinates": [
        73,
        56
      ],
      "line1": "Address 1",
      "city": "City 1",
      "postalCode": "10000",
      "primary": true,
      "state": "state"
    },
    "destinationPoint": {
      "coordinates": [
        -3,
        69
      ],
      "line1": "Address 1",
      "city": "City 2",
      "postalCode": "20000",
      "primary": false,
      "state": "state"
    },
    "startedAt": "2016-11-01T02:08:01",
    "completedAt": "2016-11-01T05:53:23"
  },
  {
    "status": "completed",
    "startingPoint": {
      "coordinates": [
        73,
        56
      ],
      "line1": "Address 1",
      "city": "City 1",
      "postalCode": "10000",
      "primary": true,
      "state": "state"
    },
    "destinationPoint": {
      "coordinates": [
        -3,
        69
      ],
      "line1": "Address 1",
      "city": "City 2",
      "postalCode": "20000",
      "primary": false,
      "state": "state"
    },
    "startedAt": "2016-11-01T02:08:01",
    "completedAt": "2016-11-01T05:53:23"
  },
  {
    "status": "completed",
    "startingPoint": {
      "coordinates": [
        73,
        56
      ],
      "line1": "Address 1",
      "city": "City 1",
      "postalCode": "10000",
      "primary": true,
      "state": "state"
    },
    "destinationPoint": {
      "coordinates": [
        -3,
        69
      ],
      "line1": "Address 1",
      "city": "City 2",
      "postalCode": "20000",
      "primary": false,
      "state": "state"
    },
    "startedAt": "2016-11-01T02:08:01",
    "completedAt": "2016-11-01T05:53:23"
  },
  {
    "status": "completed",
    "startingPoint": {
      "coordinates": [
        73,
        56
      ],
      "line1": "Address 1",
      "city": "City 1",
      "postalCode": "10000",
      "primary": true,
      "state": "state"
    },
    "destinationPoint": {
      "coordinates": [
        -3,
        69
      ],
      "line1": "Address 1",
      "city": "City 2",
      "postalCode": "20000",
      "primary": false,
      "state": "state"
    },
    "startedAt": "2016-11-01T02:08:01",
    "completedAt": "2016-11-01T05:53:23"
  },
  {
    "status": "completed",
    "startingPoint": {
      "coordinates": [
        73,
        56
      ],
      "line1": "Address 1",
      "city": "City 1",
      "postalCode": "10000",
      "primary": true,
      "state": "state"
    },
    "destinationPoint": {
      "coordinates": [
        -3,
        69
      ],
      "line1": "Address 1",
      "city": "City 2",
      "postalCode": "20000",
      "primary": false,
      "state": "state"
    },
    "startedAt": "2016-11-01T02:08:01",
    "completedAt": "2016-11-01T05:53:23"
  },
  {
    "status": "waiting",
    "startingPoint": {
      "coordinates": [
        73,
        56
      ],
      "line1": "Address 1",
      "city": "City 1",
      "postalCode": "10000",
      "primary": true,
      "state": "state"
    },
    "destinationPoint": {
      "coordinates": [
        -3,
        69
      ],
      "line1": "Address 1",
      "city": "City 2",
      "postalCode": "20000",
      "primary": false,
      "state": "state"
    }
  },
  {
    "status": "waiting",
    "startingPoint": {
      "coordinates": [
        73,
        56
      ],
      "line1": "Address 1",
      "city": "City 1",
      "postalCode": "10000",
      "primary": true,
      "state": "state"
    },
    "destinationPoint": {
      "coordinates": [
        -3,
        69
      ],
      "line1": "Address 1",
      "city": "City 2",
      "postalCode": "20000",
      "primary": false,
      "state": "state"
    }
  },
  {
    "status": "waiting",
    "startingPoint": {
      "coordinates": [
        73,
        56
      ],
      "line1": "Address 1",
      "city": "City 1",
      "postalCode": "10000",
      "primary": true,
      "state": "state"
    },
    "destinationPoint": {
      "coordinates": [
        -3,
        69
      ],
      "line1": "Address 1",
      "city": "City 2",
      "postalCode": "20000",
      "primary": false,
      "state": "state"
    }
  },
  {
    "status": "waiting",
    "startingPoint": {
      "coordinates": [
        73,
        56
      ],
      "line1": "Address 1",
      "city": "City 1",
      "postalCode": "10000",
      "primary": true,
      "state": "state"
    },
    "destinationPoint": {
      "coordinates": [
        -3,
        69
      ],
      "line1": "Address 1",
      "city": "City 2",
      "postalCode": "20000",
      "primary": false,
      "state": "state"
    }
  },
  {
    "status": "waiting",
    "startingPoint": {
      "coordinates": [
        73,
        56
      ],
      "line1": "Address 1",
      "city": "City 1",
      "postalCode": "10000",
      "primary": true,
      "state": "state"
    },
    "destinationPoint": {
      "coordinates": [
        -3,
        69
      ],
      "line1": "Address 1",
      "city": "City 2",
      "postalCode": "20000",
      "primary": false,
      "state": "state"
    }
  },
  {
    "status": "waiting",
    "startingPoint": {
      "coordinates": [
        73,
        56
      ],
      "line1": "Address 1",
      "city": "City 1",
      "postalCode": "10000",
      "primary": true,
      "state": "state"
    },
    "destinationPoint": {
      "coordinates": [
        -3,
        69
      ],
      "line1": "Address 1",
      "city": "City 2",
      "postalCode": "20000",
      "primary": false,
      "state": "state"
    }
  },
  {
    "status": "waiting",
    "startingPoint": {
      "coordinates": [
        73,
        56
      ],
      "line1": "Address 1",
      "city": "City 1",
      "postalCode": "10000",
      "primary": true,
      "state": "state"
    },
    "destinationPoint": {
      "coordinates": [
        -3,
        69
      ],
      "line1": "Address 1",
      "city": "City 2",
      "postalCode": "20000",
      "primary": false,
      "state": "state"
    }
  },
  {
    "status": "waiting",
    "startingPoint": {
      "coordinates": [
        73,
        56
      ],
      "line1": "Address 1",
      "city": "City 1",
      "postalCode": "10000",
      "primary": true,
      "state": "state"
    },
    "destinationPoint": {
      "coordinates": [
        -3,
        69
      ],
      "line1": "Address 1",
      "city": "City 2",
      "postalCode": "20000",
      "primary": false,
      "state": "state"
    }
  },
  {
    "status": "waiting",
    "startingPoint": {
      "coordinates": [
        73,
        56
      ],
      "line1": "Address 1",
      "city": "City 1",
      "postalCode": "10000",
      "primary": true,
      "state": "state"
    },
    "destinationPoint": {
      "coordinates": [
        -3,
        69
      ],
      "line1": "Address 1",
      "city": "City 2",
      "postalCode": "20000",
      "primary": false,
      "state": "state"
    }
  },
  {
    "status": "waiting",
    "startingPoint": {
      "coordinates": [
        73,
        56
      ],
      "line1": "Address 1",
      "city": "City 1",
      "postalCode": "10000",
      "primary": true,
      "state": "state"
    },
    "destinationPoint": {
      "coordinates": [
        -3,
        69
      ],
      "line1": "Address 1",
      "city": "City 2",
      "postalCode": "20000",
      "primary": false,
      "state": "state"
    }
  },
  {
    "status": "waiting",
    "startingPoint": {
      "coordinates": [
        73,
        56
      ],
      "line1": "Address 1",
      "city": "City 1",
      "postalCode": "10000",
      "primary": true,
      "state": "state"
    },
    "destinationPoint": {
      "coordinates": [
        -3,
        69
      ],
      "line1": "Address 1",
      "city": "City 2",
      "postalCode": "20000",
      "primary": false,
      "state": "state"
    }
  },
  {
    "status": "waiting",
    "startingPoint": {
      "coordinates": [
        73,
        56
      ],
      "line1": "Address 1",
      "city": "City 1",
      "postalCode": "10000",
      "primary": true,
      "state": "state"
    },
    "destinationPoint": {
      "coordinates": [
        -3,
        69
      ],
      "line1": "Address 1",
      "city": "City 2",
      "postalCode": "20000",
      "primary": false,
      "state": "state"
    }
  },
  {
    "status": "waiting",
    "startingPoint": {
      "coordinates": [
        73,
        56
      ],
      "line1": "Address 1",
      "city": "City 1",
      "postalCode": "10000",
      "primary": true,
      "state": "state"
    },
    "destinationPoint": {
      "coordinates": [
        -3,
        69
      ],
      "line1": "Address 1",
      "city": "City 2",
      "postalCode": "20000",
      "primary": false,
      "state": "state"
    }
  },
  {
    "status": "waiting",
    "startingPoint": {
      "coordinates": [
        73,
        56
      ],
      "line1": "Address 1",
      "city": "City 1",
      "postalCode": "10000",
      "primary": true,
      "state": "state"
    },
    "destinationPoint": {
      "coordinates": [
        -3,
        69
      ],
      "line1": "Address 1",
      "city": "City 2",
      "postalCode": "20000",
      "primary": false,
      "state": "state"
    }
  },
  {
    "status": "waiting",
    "startingPoint": {
      "coordinates": [
        73,
        56
      ],
      "line1": "Address 1",
      "city": "City 1",
      "postalCode": "10000",
      "primary": true,
      "state": "state"
    },
    "destinationPoint": {
      "coordinates": [
        -3,
        69
      ],
      "line1": "Address 1",
      "city": "City 2",
      "postalCode": "20000",
      "primary": false,
      "state": "state"
    }
  },
  {
    "status": "waiting",
    "startingPoint": {
      "coordinates": [
        73,
        56
      ],
      "line1": "Address 1",
      "city": "City 1",
      "postalCode": "10000",
      "primary": true,
      "state": "state"
    },
    "destinationPoint": {
      "coordinates": [
        -3,
        69
      ],
      "line1": "Address 1",
      "city": "City 2",
      "postalCode": "20000",
      "primary": false,
      "state": "state"
    }
  },
  {
    "status": "waiting",
    "startingPoint": {
      "coordinates": [
        73,
        56
      ],
      "line1": "Address 1",
      "city": "City 1",
      "postalCode": "10000",
      "primary": true,
      "state": "state"
    },
    "destinationPoint": {
      "coordinates": [
        -3,
        69
      ],
      "line1": "Address 1",
      "city": "City 2",
      "postalCode": "20000",
      "primary": false,
      "state": "state"
    }
  },
  {
    "status": "waiting",
    "startingPoint": {
      "coordinates": [
        73,
        56
      ],
      "line1": "Address 1",
      "city": "City 1",
      "postalCode": "10000",
      "primary": true,
      "state": "state"
    },
    "destinationPoint": {
      "coordinates": [
        -3,
        69
      ],
      "line1": "Address 1",
      "city": "City 2",
      "postalCode": "20000",
      "primary": false,
      "state": "state"
    }
  },
  {
    "status": "waiting",
    "startingPoint": {
      "coordinates": [
        73,
        56
      ],
      "line1": "Address 1",
      "city": "City 1",
      "postalCode": "10000",
      "primary": true,
      "state": "state"
    },
    "destinationPoint": {
      "coordinates": [
        -3,
        69
      ],
      "line1": "Address 1",
      "city": "City 2",
      "postalCode": "20000",
      "primary": false,
      "state": "state"
    }
  },
  {
    "status": "waiting",
    "startingPoint": {
      "coordinates": [
        73,
        56
      ],
      "line1": "Address 1",
      "city": "City 1",
      "postalCode": "10000",
      "primary": true,
      "state": "state"
    },
    "destinationPoint": {
      "coordinates": [
        -3,
        69
      ],
      "line1": "Address 1",
      "city": "City 2",
      "postalCode": "20000",
      "primary": false,
      "state": "state"
    }
  },
  {
    "status": "waiting",
    "startingPoint": {
      "coordinates": [
        73,
        56
      ],
      "line1": "Address 1",
      "city": "City 1",
      "postalCode": "10000",
      "primary": true,
      "state": "state"
    },
    "destinationPoint": {
      "coordinates": [
        -3,
        69
      ],
      "line1": "Address 1",
      "city": "City 2",
      "postalCode": "20000",
      "primary": false,
      "state": "state"
    }
  },
  {
    "status": "waiting",
    "startingPoint": {
      "coordinates": [
        73,
        56
      ],
      "line1": "Address 1",
      "city": "City 1",
      "postalCode": "10000",
      "primary": true,
      "state": "state"
    },
    "destinationPoint": {
      "coordinates": [
        -3,
        69
      ],
      "line1": "Address 1",
      "city": "City 2",
      "postalCode": "20000",
      "primary": false,
      "state": "state"
    }
  },
  {
    "status": "waiting",
    "startingPoint": {
      "coordinates": [
        73,
        56
      ],
      "line1": "Address 1",
      "city": "City 1",
      "postalCode": "10000",
      "primary": true,
      "state": "state"
    },
    "destinationPoint": {
      "coordinates": [
        -3,
        69
      ],
      "line1": "Address 1",
      "city": "City 2",
      "postalCode": "20000",
      "primary": false,
      "state": "state"
    }
  },
  {
    "status": "waiting",
    "startingPoint": {
      "coordinates": [
        73,
        56
      ],
      "line1": "Address 1",
      "city": "City 1",
      "postalCode": "10000",
      "primary": true,
      "state": "state"
    },
    "destinationPoint": {
      "coordinates": [
        -3,
        69
      ],
      "line1": "Address 1",
      "city": "City 2",
      "postalCode": "20000",
      "primary": false,
      "state": "state"
    }
  },
  {
    "status": "waiting",
    "startingPoint": {
      "coordinates": [
        73,
        56
      ],
      "line1": "Address 1",
      "city": "City 1",
      "postalCode": "10000",
      "primary": true,
      "state": "state"
    },
    "destinationPoint": {
      "coordinates": [
        -3,
        69
      ],
      "line1": "Address 1",
      "city": "City 2",
      "postalCode": "20000",
      "primary": false,
      "state": "state"
    }
  },
  {
    "status": "waiting",
    "startingPoint": {
      "coordinates": [
        73,
        56
      ],
      "line1": "Address 1",
      "city": "City 1",
      "postalCode": "10000",
      "primary": true,
      "state": "state"
    },
    "destinationPoint": {
      "coordinates": [
        -3,
        69
      ],
      "line1": "Address 1",
      "city": "City 2",
      "postalCode": "20000",
      "primary": false,
      "state": "state"
    }
  },
  {
    "status": "waiting",
    "startingPoint": {
      "coordinates": [
        73,
        56
      ],
      "line1": "Address 1",
      "city": "City 1",
      "postalCode": "10000",
      "primary": true,
      "state": "state"
    },
    "destinationPoint": {
      "coordinates": [
        -3,
        69
      ],
      "line1": "Address 1",
      "city": "City 2",
      "postalCode": "20000",
      "primary": false,
      "state": "state"
    }
  },
  {
    "status": "waiting",
    "startingPoint": {
      "coordinates": [
        73,
        56
      ],
      "line1": "Address 1",
      "city": "City 1",
      "postalCode": "10000",
      "primary": true,
      "state": "state"
    },
    "destinationPoint": {
      "coordinates": [
        -3,
        69
      ],
      "line1": "Address 1",
      "city": "City 2",
      "postalCode": "20000",
      "primary": false,
      "state": "state"
    }
  },
  {
    "status": "waiting",
    "startingPoint": {
      "coordinates": [
        73,
        56
      ],
      "line1": "Address 1",
      "city": "City 1",
      "postalCode": "10000",
      "primary": true,
      "state": "state"
    },
    "destinationPoint": {
      "coordinates": [
        -3,
        69
      ],
      "line1": "Address 1",
      "city": "City 2",
      "postalCode": "20000",
      "primary": false,
      "state": "state"
    }
  },
  {
    "status": "waiting",
    "startingPoint": {
      "coordinates": [
        73,
        56
      ],
      "line1": "Address 1",
      "city": "City 1",
      "postalCode": "10000",
      "primary": true,
      "state": "state"
    },
    "destinationPoint": {
      "coordinates": [
        -3,
        69
      ],
      "line1": "Address 1",
      "city": "City 2",
      "postalCode": "20000",
      "primary": false,
      "state": "state"
    }
  },
  {
    "status": "waiting",
    "startingPoint": {
      "coordinates": [
        73,
        56
      ],
      "line1": "Address 1",
      "city": "City 1",
      "postalCode": "10000",
      "primary": true,
      "state": "state"
    },
    "destinationPoint": {
      "coordinates": [
        -3,
        69
      ],
      "line1": "Address 1",
      "city": "City 2",
      "postalCode": "20000",
      "primary": false,
      "state": "state"
    }
  },
  {
    "status": "waiting",
    "startingPoint": {
      "coordinates": [
        73,
        56
      ],
      "line1": "Address 1",
      "city": "City 1",
      "postalCode": "10000",
      "primary": true,
      "state": "state"
    },
    "destinationPoint": {
      "coordinates": [
        -3,
        69
      ],
      "line1": "Address 1",
      "city": "City 2",
      "postalCode": "20000",
      "primary": false,
      "state": "state"
    }
  },
  {
    "status": "waiting",
    "startingPoint": {
      "coordinates": [
        73,
        56
      ],
      "line1": "Address 1",
      "city": "City 1",
      "postalCode": "10000",
      "primary": true,
      "state": "state"
    },
    "destinationPoint": {
      "coordinates": [
        -3,
        69
      ],
      "line1": "Address 1",
      "city": "City 2",
      "postalCode": "20000",
      "primary": false,
      "state": "state"
    }
  },
  {
    "status": "waiting",
    "startingPoint": {
      "coordinates": [
        73,
        56
      ],
      "line1": "Address 1",
      "city": "City 1",
      "postalCode": "10000",
      "primary": true,
      "state": "state"
    },
    "destinationPoint": {
      "coordinates": [
        -3,
        69
      ],
      "line1": "Address 1",
      "city": "City 2",
      "postalCode": "20000",
      "primary": false,
      "state": "state"
    }
  },
  {
    "status": "waiting",
    "startingPoint": {
      "coordinates": [
        73,
        56
      ],
      "line1": "Address 1",
      "city": "City 1",
      "postalCode": "10000",
      "primary": true,
      "state": "state"
    },
    "destinationPoint": {
      "coordinates": [
        -3,
        69
      ],
      "line1": "Address 1",
      "city": "City 2",
      "postalCode": "20000",
      "primary": false,
      "state": "state"
    }
  },
  {
    "status": "waiting",
    "startingPoint": {
      "coordinates": [
        73,
        56
      ],
      "line1": "Address 1",
      "city": "City 1",
      "postalCode": "10000",
      "primary": true,
      "state": "state"
    },
    "destinationPoint": {
      "coordinates": [
        -3,
        69
      ],
      "line1": "Address 1",
      "city": "City 2",
      "postalCode": "20000",
      "primary": false,
      "state": "state"
    }
  },
  {
    "status": "completed",
    "startingPoint": {
      "coordinates": [
        73,
        56
      ],
      "line1": "Address 1",
      "city": "City 1",
      "postalCode": "10000",
      "primary": true,
      "state": "state"
    },
    "destinationPoint": {
      "coordinates": [
        -3,
        69
      ],
      "line1": "Address 1",
      "city": "City 2",
      "postalCode": "20000",
      "primary": false,
      "state": "state"
    },
    "startedAt": "2016-11-01T02:08:01",
    "completedAt": "2016-11-01T05:53:23"
  },
  {
    "status": "completed",
    "startingPoint": {
      "coordinates": [
        73,
        56
      ],
      "line1": "Address 1",
      "city": "City 1",
      "postalCode": "10000",
      "primary": true,
      "state": "state"
    },
    "destinationPoint": {
      "coordinates": [
        -3,
        69
      ],
      "line1": "Address 1",
      "city": "City 2",
      "postalCode": "20000",
      "primary": false,
      "state": "state"
    },
    "startedAt": "2016-11-01T02:08:01",
    "completedAt": "2016-11-01T05:53:23"
  },
  {
    "status": "completed",
    "startingPoint": {
      "coordinates": [
        73,
        56
      ],
      "line1": "Address 1",
      "city": "City 1",
      "postalCode": "10000",
      "primary": true,
      "state": "state"
    },
    "destinationPoint": {
      "coordinates": [
        -3,
        69
      ],
      "line1": "Address 1",
      "city": "City 2",
      "postalCode": "20000",
      "primary": false,
      "state": "state"
    },
    "startedAt": "2016-11-01T02:08:01",
    "completedAt": "2016-11-01T05:53:23"
  },
  {
    "status": "completed",
    "startingPoint": {
      "coordinates": [
        73,
        56
      ],
      "line1": "Address 1",
      "city": "City 1",
      "postalCode": "10000",
      "primary": true,
      "state": "state"
    },
    "destinationPoint": {
      "coordinates": [
        -3,
        69
      ],
      "line1": "Address 1",
      "city": "City 2",
      "postalCode": "20000",
      "primary": false,
      "state": "state"
    },
    "startedAt": "2016-11-01T02:08:01",
    "completedAt": "2016-11-01T05:53:23"
  },
  {
    "status": "completed",
    "startingPoint": {
      "coordinates": [
        73,
        56
      ],
      "line1": "Address 1",
      "city": "City 1",
      "postalCode": "10000",
      "primary": true,
      "state": "state"
    },
    "destinationPoint": {
      "coordinates": [
        -3,
        69
      ],
      "line1": "Address 1",
      "city": "City 2",
      "postalCode": "20000",
      "primary": false,
      "state": "state"
    },
    "startedAt": "2016-11-01T02:08:01",
    "completedAt": "2016-11-01T05:53:23"
  },
  {
    "status": "completed",
    "startingPoint": {
      "coordinates": [
        73,
        56
      ],
      "line1": "Address 1",
      "city": "City 1",
      "postalCode": "10000",
      "primary": true,
      "state": "state"
    },
    "destinationPoint": {
      "coordinates": [
        -3,
        69
      ],
      "line1": "Address 1",
      "city": "City 2",
      "postalCode": "20000",
      "primary": false,
      "state": "state"
    },
    "startedAt": "2016-11-01T02:08:01",
    "completedAt": "2016-11-01T05:53:23"
  },
  {
    "status": "completed",
    "startingPoint": {
      "coordinates": [
        73,
        56
      ],
      "line1": "Address 1",
      "city": "City 1",
      "postalCode": "10000",
      "primary": true,
      "state": "state"
    },
    "destinationPoint": {
      "coordinates": [
        -3,
        69
      ],
      "line1": "Address 1",
      "city": "City 2",
      "postalCode": "20000",
      "primary": false,
      "state": "state"
    },
    "startedAt": "2016-11-01T02:08:01",
    "completedAt": "2016-11-01T05:53:23"
  },
  {
    "status": "completed",
    "startingPoint": {
      "coordinates": [
        73,
        56
      ],
      "line1": "Address 1",
      "city": "City 1",
      "postalCode": "10000",
      "primary": true,
      "state": "state"
    },
    "destinationPoint": {
      "coordinates": [
        -3,
        69
      ],
      "line1": "Address 1",
      "city": "City 2",
      "postalCode": "20000",
      "primary": false,
      "state": "state"
    },
    "startedAt": "2016-11-01T02:08:01",
    "completedAt": "2016-11-01T05:53:23"
  },
  {
    "status": "completed",
    "startingPoint": {
      "coordinates": [
        73,
        56
      ],
      "line1": "Address 1",
      "city": "City 1",
      "postalCode": "10000",
      "primary": true,
      "state": "state"
    },
    "destinationPoint": {
      "coordinates": [
        -3,
        69
      ],
      "line1": "Address 1",
      "city": "City 2",
      "postalCode": "20000",
      "primary": false,
      "state": "state"
    },
    "startedAt": "2016-11-01T02:08:01",
    "completedAt": "2016-11-01T05:53:23"
  },
  {
    "status": "completed",
    "startingPoint": {
      "coordinates": [
        73,
        56
      ],
      "line1": "Address 1",
      "city": "City 1",
      "postalCode": "10000",
      "primary": true,
      "state": "state"
    },
    "destinationPoint": {
      "coordinates": [
        -3,
        69
      ],
      "line1": "Address 1",
      "city": "City 2",
      "postalCode": "20000",
      "primary": false,
      "state": "state"
    },
    "startedAt": "2016-11-01T02:08:01",
    "completedAt": "2016-11-01T05:53:23"
  },
  {
    "status": "completed",
    "startingPoint": {
      "coordinates": [
        73,
        56
      ],
      "line1": "Address 1",
      "city": "City 1",
      "postalCode": "10000",
      "primary": true,
      "state": "state"
    },
    "destinationPoint": {
      "coordinates": [
        -3,
        69
      ],
      "line1": "Address 1",
      "city": "City 2",
      "postalCode": "20000",
      "primary": false,
      "state": "state"
    },
    "startedAt": "2016-11-01T02:08:01",
    "completedAt": "2016-11-01T05:53:23"
  },
  {
    "status": "completed",
    "startingPoint": {
      "coordinates": [
        73,
        56
      ],
      "line1": "Address 1",
      "city": "City 1",
      "postalCode": "10000",
      "primary": true,
      "state": "state"
    },
    "destinationPoint": {
      "coordinates": [
        -3,
        69
      ],
      "line1": "Address 1",
      "city": "City 2",
      "postalCode": "20000",
      "primary": false,
      "state": "state"
    },
    "startedAt": "2016-11-01T02:08:01",
    "completedAt": "2016-11-01T05:53:23"
  },
  {
    "status": "completed",
    "startingPoint": {
      "coordinates": [
        73,
        56
      ],
      "line1": "Address 1",
      "city": "City 1",
      "postalCode": "10000",
      "primary": true,
      "state": "state"
    },
    "destinationPoint": {
      "coordinates": [
        -3,
        69
      ],
      "line1": "Address 1",
      "city": "City 2",
      "postalCode": "20000",
      "primary": false,
      "state": "state"
    },
    "startedAt": "2016-11-01T02:08:01",
    "completedAt": "2016-11-01T05:53:23"
  },
  {
    "status": "completed",
    "startingPoint": {
      "coordinates": [
        73,
        56
      ],
      "line1": "Address 1",
      "city": "City 1",
      "postalCode": "10000",
      "primary": true,
      "state": "state"
    },
    "destinationPoint": {
      "coordinates": [
        -3,
        69
      ],
      "line1": "Address 1",
      "city": "City 2",
      "postalCode": "20000",
      "primary": false,
      "state": "state"
    },
    "startedAt": "2016-11-01T02:08:01",
    "completedAt": "2016-11-01T05:53:23"
  },
  {
    "status": "completed",
    "startingPoint": {
      "coordinates": [
        73,
        56
      ],
      "line1": "Address 1",
      "city": "City 1",
      "postalCode": "10000",
      "primary": true,
      "state": "state"
    },
    "destinationPoint": {
      "coordinates": [
        -3,
        69
      ],
      "line1": "Address 1",
      "city": "City 2",
      "postalCode": "20000",
      "primary": false,
      "state": "state"
    },
    "startedAt": "2016-11-01T02:08:01",
    "completedAt": "2016-11-01T05:53:23"
  },
  {
    "status": "completed",
    "startingPoint": {
      "coordinates": [
        73,
        56
      ],
      "line1": "Address 1",
      "city": "City 1",
      "postalCode": "10000",
      "primary": true,
      "state": "state"
    },
    "destinationPoint": {
      "coordinates": [
        -3,
        69
      ],
      "line1": "Address 1",
      "city": "City 2",
      "postalCode": "20000",
      "primary": false,
      "state": "state"
    },
    "startedAt": "2016-11-01T02:08:01",
    "completedAt": "2016-11-01T05:53:23"
  },
  {
    "status": "completed",
    "startingPoint": {
      "coordinates": [
        73,
        56
      ],
      "line1": "Address 1",
      "city": "City 1",
      "postalCode": "10000",
      "primary": true,
      "state": "state"
    },
    "destinationPoint": {
      "coordinates": [
        -3,
        69
      ],
      "line1": "Address 1",
      "city": "City 2",
      "postalCode": "20000",
      "primary": false,
      "state": "state"
    },
    "startedAt": "2016-11-01T02:08:01",
    "completedAt": "2016-11-01T05:53:23"
  },
  {
    "status": "completed",
    "startingPoint": {
      "coordinates": [
        73,
        56
      ],
      "line1": "Address 1",
      "city": "City 1",
      "postalCode": "10000",
      "primary": true,
      "state": "state"
    },
    "destinationPoint": {
      "coordinates": [
        -3,
        69
      ],
      "line1": "Address 1",
      "city": "City 2",
      "postalCode": "20000",
      "primary": false,
      "state": "state"
    },
    "startedAt": "2016-11-01T02:08:01",
    "completedAt": "2016-11-01T05:53:23"
  },
  {
    "status": "completed",
    "startingPoint": {
      "coordinates": [
        73,
        56
      ],
      "line1": "Address 1",
      "city": "City 1",
      "postalCode": "10000",
      "primary": true,
      "state": "state"
    },
    "destinationPoint": {
      "coordinates": [
        -3,
        69
      ],
      "line1": "Address 1",
      "city": "City 2",
      "postalCode": "20000",
      "primary": false,
      "state": "state"
    },
    "startedAt": "2016-11-01T02:08:01",
    "completedAt": "2016-11-01T05:53:23"
  },
  {
    "status": "completed",
    "startingPoint": {
      "coordinates": [
        73,
        56
      ],
      "line1": "Address 1",
      "city": "City 1",
      "postalCode": "10000",
      "primary": true,
      "state": "state"
    },
    "destinationPoint": {
      "coordinates": [
        -3,
        69
      ],
      "line1": "Address 1",
      "city": "City 2",
      "postalCode": "20000",
      "primary": false,
      "state": "state"
    },
    "startedAt": "2016-11-01T02:08:01",
    "completedAt": "2016-11-01T05:53:23"
  },
  {
    "status": "completed",
    "startingPoint": {
      "coordinates": [
        73,
        56
      ],
      "line1": "Address 1",
      "city": "City 1",
      "postalCode": "10000",
      "primary": true,
      "state": "state"
    },
    "destinationPoint": {
      "coordinates": [
        -3,
        69
      ],
      "line1": "Address 1",
      "city": "City 2",
      "postalCode": "20000",
      "primary": false,
      "state": "state"
    },
    "startedAt": "2016-11-01T02:08:01",
    "completedAt": "2016-11-01T05:53:23"
  },
  {
    "status": "completed",
    "startingPoint": {
      "coordinates": [
        73,
        56
      ],
      "line1": "Address 1",
      "city": "City 1",
      "postalCode": "10000",
      "primary": true,
      "state": "state"
    },
    "destinationPoint": {
      "coordinates": [
        -3,
        69
      ],
      "line1": "Address 1",
      "city": "City 2",
      "postalCode": "20000",
      "primary": false,
      "state": "state"
    },
    "startedAt": "2016-11-01T02:08:01",
    "completedAt": "2016-11-01T05:53:23"
  },
  {
    "status": "completed",
    "startingPoint": {
      "coordinates": [
        73,
        56
      ],
      "line1": "Address 1",
      "city": "City 1",
      "postalCode": "10000",
      "primary": true,
      "state": "state"
    },
    "destinationPoint": {
      "coordinates": [
        -3,
        69
      ],
      "line1": "Address 1",
      "city": "City 2",
      "postalCode": "20000",
      "primary": false,
      "state": "state"
    },
    "startedAt": "2016-11-01T02:08:01",
    "completedAt": "2016-11-01T05:53:23"
  },
  {
    "status": "completed",
    "startingPoint": {
      "coordinates": [
        73,
        56
      ],
      "line1": "Address 1",
      "city": "City 1",
      "postalCode": "10000",
      "primary": true,
      "state": "state"
    },
    "destinationPoint": {
      "coordinates": [
        -3,
        69
      ],
      "line1": "Address 1",
      "city": "City 2",
      "postalCode": "20000",
      "primary": false,
      "state": "state"
    },
    "startedAt": "2016-11-01T02:08:01",
    "completedAt": "2016-11-01T05:53:23"
  },
  {
    "status": "completed",
    "startingPoint": {
      "coordinates": [
        73,
        56
      ],
      "line1": "Address 1",
      "city": "City 1",
      "postalCode": "10000",
      "primary": true,
      "state": "state"
    },
    "destinationPoint": {
      "coordinates": [
        -3,
        69
      ],
      "line1": "Address 1",
      "city": "City 2",
      "postalCode": "20000",
      "primary": false,
      "state": "state"
    },
    "startedAt": "2016-11-01T02:08:01",
    "completedAt": "2016-11-01T05:53:23"
  },
  {
    "status": "completed",
    "startingPoint": {
      "coordinates": [
        73,
        56
      ],
      "line1": "Address 1",
      "city": "City 1",
      "postalCode": "10000",
      "primary": true,
      "state": "state"
    },
    "destinationPoint": {
      "coordinates": [
        -3,
        69
      ],
      "line1": "Address 1",
      "city": "City 2",
      "postalCode": "20000",
      "primary": false,
      "state": "state"
    },
    "startedAt": "2016-11-01T02:08:01",
    "completedAt": "2016-11-01T05:53:23"
  },
  {
    "status": "completed",
    "startingPoint": {
      "coordinates": [
        73,
        56
      ],
      "line1": "Address 1",
      "city": "City 1",
      "postalCode": "10000",
      "primary": true,
      "state": "state"
    },
    "destinationPoint": {
      "coordinates": [
        -3,
        69
      ],
      "line1": "Address 1",
      "city": "City 2",
      "postalCode": "20000",
      "primary": false,
      "state": "state"
    },
    "startedAt": "2016-11-01T02:08:01",
    "completedAt": "2016-11-01T05:53:23"
  },
  {
    "status": "completed",
    "startingPoint": {
      "coordinates": [
        73,
        56
      ],
      "line1": "Address 1",
      "city": "City 1",
      "postalCode": "10000",
      "primary": true,
      "state": "state"
    },
    "destinationPoint": {
      "coordinates": [
        -3,
        69
      ],
      "line1": "Address 1",
      "city": "City 2",
      "postalCode": "20000",
      "primary": false,
      "state": "state"
    },
    "startedAt": "2016-11-01T02:08:01",
    "completedAt": "2016-11-01T05:53:23"
  },
  {
    "status": "completed",
    "startingPoint": {
      "coordinates": [
        73,
        56
      ],
      "line1": "Address 1",
      "city": "City 1",
      "postalCode": "10000",
      "primary": true,
      "state": "state"
    },
    "destinationPoint": {
      "coordinates": [
        -3,
        69
      ],
      "line1": "Address 1",
      "city": "City 2",
      "postalCode": "20000",
      "primary": false,
      "state": "state"
    },
    "startedAt": "2016-11-01T02:08:01",
    "completedAt": "2016-11-01T05:53:23"
  },
  {
    "status": "completed",
    "startingPoint": {
      "coordinates": [
        73,
        56
      ],
      "line1": "Address 1",
      "city": "City 1",
      "postalCode": "10000",
      "primary": true,
      "state": "state"
    },
    "destinationPoint": {
      "coordinates": [
        -3,
        69
      ],
      "line1": "Address 1",
      "city": "City 2",
      "postalCode": "20000",
      "primary": false,
      "state": "state"
    },
    "startedAt": "2016-11-01T02:08:01",
    "completedAt": "2016-11-01T05:53:23"
  }
]