[
  {
    "status": "in-progress",
    "contactInfo": {
      "recipientName": "my name",
      "phoneNumber": "66666666"
    },
    "destinationPoint": {
      "coordinates": [
        10,
        11
      ],
      "line1": "address one",
      "line2": "address two",
      "city": "my city",
      "state": "state",
      "postalCode": "12354",
      "primary": false
    },
    "startingPoint": {
      "coordinates": [
        5,
        5
      ],
      "line1": "address one",
      "line2": "address two",
      "city": "my city",
      "state": "state",
      "postalCode": "12354",
      "primary": false
    }
  },
  {
    "status": "in-progress",
    "contactInfo": {
      "recipientName": "my name",
      "phoneNumber": "66666666"
    },
    "destinationPoint": {
      "coordinates": [
        10,
        11
      ],
      "line1": "address one",
      "line2": "address two",
      "city": "my city",
      "state": "state",
      "postalCode": "12354",
      "primary": false
    },
    "startingPoint": {
      "coordinates": [
        5,
        5
      ],
      "line1": "address one",
      "line2": "address two",
      "city": "my city",
      "state": "state",
      "postalCode": "12354",
      "primary": false
    }
  },
  {
    "status": "in-progress",
    "contactInfo": {
      "recipientName": "my name",
      "phoneNumber": "66666666"
    },
    "destinationPoint": {
      "coordinates": [
        10,
        11
      ],
      "line1": "address one",
      "line2": "address two",
      "city": "my city",
      "state": "state",
      "postalCode": "12354",
      "primary": false
    },
    "startingPoint": {
      "coordinates": [
        5,
        5
      ],
      "line1": "address one",
      "line2": "address two",
      "city": "my city",
      "state": "state",
      "postalCode": "12354",
      "primary": false
    }
  },
  {
    "status": "in-progress",
    "contactInfo": {
      "recipientName": "my name",
      "phoneNumber": "66666666"
    },
    "destinationPoint": {
      "coordinates": [
        10,
        11
      ],
      "line1": "address one",
      "line2": "address two",
      "city": "my city",
      "state": "state",
      "postalCode": "12354",
      "primary": false
    },
    "startingPoint": {
      "coordinates": [
        5,
        5
      ],
      "line1": "address one",
      "line2": "address two",
      "city": "my city",
      "state": "state",
      "postalCode": "12354",
      "primary": false
    }
  },
  {
    "status": "in-progress",
    "contactInfo": {
      "recipientName": "my name",
      "phoneNumber": "66666666"
    },
    "destinationPoint": {
      "coordinates": [
        10,
        11
      ],
      "line1": "address one",
      "line2": "address two",
      "city": "my city",
      "state": "state",
      "postalCode": "12354",
      "primary": false
    },
    "startingPoint": {
      "coordinates": [
        5,
        5
      ],
      "line1": "address one",
      "line2": "address two",
      "city": "my city",
      "state": "state",
      "postalCode": "12354",
      "primary": false
    }
  },
  {
    "status": "in-progress",
    "contactInfo": {
      "recipientName": "my name",
      "phoneNumber": "66666666"
    },
    "destinationPoint": {
      "coordinates": [
        10,
        11
      ],
      "line1": "address one",
      "line2": "address two",
      "city": "my city",
      "state": "state",
      "postalCode": "12354",
      "primary": false
    },
    "startingPoint": {
      "coordinates": [
        5,
        5
      ],
      "line1": "address one",
      "line2": "address two",
      "city": "my city",
      "state": "state",
      "postalCode": "12354",
      "primary": false
    }
  },
  {
    "status": "in-progress",
    "contactInfo": {
      "recipientName": "my name",
      "phoneNumber": "66666666"
    },
    "destinationPoint": {
      "coordinates": [
        10,
        11
      ],
      "line1": "address one",
      "line2": "address two",
      "city": "my city",
      "state": "state",
      "postalCode": "12354",
      "primary": false
    },
    "startingPoint": {
      "coordinates": [
        5,
        5
      ],
      "line1": "address one",
      "line2": "address two",
      "city": "my city",
      "state": "state",
      "postalCode": "12354",
      "primary": false
    }
  },
  {
    "status": "in-progress",
    "contactInfo": {
      "recipientName": "my name",
      "phoneNumber": "66666666"
    },
    "destinationPoint": {
      "coordinates": [
        10,
        11
      ],
      "line1": "address one",
      "line2": "address two",
      "city": "my city",
      "state": "state",
      "postalCode": "12354",
      "primary": false
    },
    "startingPoint": {
      "coordinates": [
        5,
        5
      ],
      "line1": "address one",
      "line2": "address two",
      "city": "my city",
      "state": "state",
      "postalCode": "12354",
      "primary": false
    }
  },
  {
    "status": "in-progress",
    "contactInfo": {
      "recipientName": "my name",
      "phoneNumber": "66666666"
    },
    "destinationPoint": {
      "coordinates": [
        10,
        11
      ],
      "line1": "address one",
      "line2": "address two",
      "city": "my city",
      "state": "state",
      "postalCode": "12354",
      "primary": false
    },
    "startingPoint": {
      "coordinates": [
        5,
        5
      ],
      "line1": "address one",
      "line2": "address two",
      "city": "my city",
      "state": "state",
      "postalCode": "12354",
      "primary": false
    }
  },
  {
    "status": "in-progress",
    "contactInfo": {
      "recipientName": "my name",
      "phoneNumber": "66666666"
    },
    "destinationPoint": {
      "coordinates": [
        10,
        11
      ],
      "line1": "address one",
      "line2": "address two",
      "city": "my city",
      "state": "state",
      "postalCode": "12354",
      "primary": false
    },
    "startingPoint": {
      "coordinates": [
        5,
        5
      ],
      "line1": "address one",
      "line2": "address two",
      "city": "my city",
      "state": "state",
      "postalCode": "12354",
      "primary": false
    }
  },
  {
    "status": "in-progress",
    "contactInfo": {
      "recipientName": "my name",
      "phoneNumber": "66666666"
    },
    "destinationPoint": {
      "coordinates": [
        10,
        11
      ],
      "line1": "address one",
      "line2": "address two",
      "city": "my city",
      "state": "state",
      "postalCode": "12354",
      "primary": false
    },
    "startingPoint": {
      "coordinates": [
        5,
        5
      ],
      "line1": "address one",
      "line2": "address two",
      "city": "my city",
      "state": "state",
      "postalCode": "12354",
      "primary": false
    }
  },
  {
    "status": "in-progress",
    "contactInfo": {
      "recipientName": "my name",
      "phoneNumber": "66666666"
    },
    "destinationPoint": {
      "coordinates": [
        10,
        11
      ],
      "line1": "address one",
      "line2": "address two",
      "city": "my city",
      "state": "state",
      "postalCode": "12354",
      "primary": false
    },
    "startingPoint": {
      "coordinates": [
        5,
        5
      ],
      "line1": "address one",
      "line2": "address two",
      "city": "my city",
      "state": "state",
      "postalCode": "12354",
      "primary": false
    }
  },
  {
    "status": "in-progress",
    "contactInfo": {
      "recipientName": "my name",
      "phoneNumber": "66666666"
    },
    "destinationPoint": {
      "coordinates": [
        10,
        11
      ],
      "line1": "address one",
      "line2": "address two",
      "city": "my city",
      "state": "state",
      "postalCode": "12354",
      "primary": false
    },
    "startingPoint": {
      "coordinates": [
        5,
        5
      ],
      "line1": "address one",
      "line2": "address two",
      "city": "my city",
      "state": "state",
      "postalCode": "12354",
      "primary": false
    }
  },
  {
    "status": "in-progress",
    "contactInfo": {
      "recipientName": "my name",
      "phoneNumber": "66666666"
    },
    "destinationPoint": {
      "coordinates": [
        10,
        11
      ],
      "line1": "address one",
      "line2": "address two",
      "city": "my city",
      "state": "state",
      "postalCode": "12354",
      "primary": false
    },
    "startingPoint": {
      "coordinates": [
        5,
        5
      ],
      "line1": "address one",
      "line2": "address two",
      "city": "my city",
      "state": "state",
      "postalCode": "12354",
      "primary": false
    }
  },
  {
    "status": "in-progress",
    "contactInfo": {
      "recipientName": "my name",
      "phoneNumber": "66666666"
    },
    "destinationPoint": {
      "coordinates": [
        10,
        11
      ],
      "line1": "address one",
      "line2": "address two",
      "city": "my city",
      "state": "state",
      "postalCode": "12354",
      "primary": false
    },
    "startingPoint": {
      "coordinates": [
        5,
        5
      ],
      "line1": "address one",
      "line2": "address two",
      "city": "my city",
      "state": "state",
      "postalCode": "12354",
      "primary": false
    }
  },
  {
    "status": "in-progress",
    "contactInfo": {
      "recipientName": "my name",
      "phoneNumber": "66666666"
    },
    "destinationPoint": {
      "coordinates": [
        10,
        11
      ],
      "line1": "address one",
      "line2": "address two",
      "city": "my city",
      "state": "state",
      "postalCode": "12354",
      "primary": false
    },
    "startingPoint": {
      "coordinates": [
        5,
        5
      ],
      "line1": "address one",
      "line2": "address two",
      "city": "my city",
      "state": "state",
      "postalCode": "12354",
      "primary": false
    }
  },
  {
    "status": "in-progress",
    "contactInfo": {
      "recipientName": "my name",
      "phoneNumber": "66666666"
    },
    "destinationPoint": {
      "coordinates": [
        10,
        11
      ],
      "line1": "address one",
      "line2": "address two",
      "city": "my city",
      "state": "state",
      "postalCode": "12354",
      "primary": false
    },
    "startingPoint": {
      "coordinates": [
        5,
        5
      ],
      "line1": "address one",
      "line2": "address two",
      "city": "my city",
      "state": "state",
      "postalCode": "12354",
      "primary": false
    }
  },
  {
    "status": "in-progress",
    "contactInfo": {
      "recipientName": "my name",
      "phoneNumber": "66666666"
    },
    "destinationPoint": {
      "coordinates": [
        10,
        11
      ],
      "line1": "address one",
      "line2": "address two",
      "city": "my city",
      "state": "state",
      "postalCode": "12354",
      "primary": false
    },
    "startingPoint": {
      "coordinates": [
        5,
        5
      ],
      "line1": "address one",
      "line2": "address two",
      "city": "my city",
      "state": "state",
      "postalCode": "12354",
      "primary": false
    }
  },
  {
    "status": "in-progress",
    "contactInfo": {
      "recipientName": "my name",
      "phoneNumber": "66666666"
    },
    "destinationPoint": {
      "coordinates": [
        10,
        11
      ],
      "line1": "address one",
      "line2": "address two",
      "city": "my city",
      "state": "state",
      "postalCode": "12354",
      "primary": false
    },
    "startingPoint": {
      "coordinates": [
        5,
        5
      ],
      "line1": "address one",
      "line2": "address two",
      "city": "my city",
      "state": "state",
      "postalCode": "12354",
      "primary": false
    }
  },
  {
    "status": "in-progress",
    "contactInfo": {
      "recipientName": "my name",
      "phoneNumber": "66666666"
    },
    "destinationPoint": {
      "coordinates": [
        10,
        11
      ],
      "line1": "address one",
      "line2": "address two",
      "city": "my city",
      "state": "state",
      "postalCode": "12354",
      "primary": false
    },
    "startingPoint": {
      "coordinates": [
        5,
        5
      ],
      "line1": "address one",
      "line2": "address two",
      "city": "my city",
      "state": "state",
      "postalCode": "12354",
      "primary": false
    }
  },
  {
    "status": "in-progress",
    "contactInfo": {
      "recipientName": "my name",
      "phoneNumber": "66666666"
    },
    "destinationPoint": {
      "coordinates": [
        10,
        11
      ],
      "line1": "address one",
      "line2": "address two",
      "city": "my city",
      "state": "state",
      "postalCode": "12354",
      "primary": false
    },
    "startingPoint": {
      "coordinates": [
        5,
        5
      ],
      "line1": "address one",
      "line2": "address two",
      "city": "my city",
      "state": "state",
      "postalCode": "12354",
      "primary": false
    }
  },
  {
    "status": "in-progress",
    "contactInfo": {
      "recipientName": "my name",
      "phoneNumber": "66666666"
    },
    "destinationPoint": {
      "coordinates": [
        10,
        11
      ],
      "line1": "address one",
      "line2": "address two",
      "city": "my city",
      "state": "state",
      "postalCode": "12354",
      "primary": false
    },
    "startingPoint": {
      "coordinates": [
        5,
        5
      ],
      "line1": "address one",
      "line2": "address two",
      "city": "my city",
      "state": "state",
      "postalCode": "12354",
      "primary": false
    }
  },
  {
    "status": "in-progress",
    "contactInfo": {
      "recipientName": "my name",
      "phoneNumber": "66666666"
    },
    "destinationPoint": {
      "coordinates": [
        10,
        11
      ],
      "line1": "address one",
      "line2": "address two",
      "city": "my city",
      "state": "state",
      "postalCode": "12354",
      "primary": false
    },
    "startingPoint": {
      "coordinates": [
        5,
        5
      ],
      "line1": "address one",
      "line2": "address two",
      "city": "my city",
      "state": "state",
      "postalCode": "12354",
      "primary": false
    }
  },
  {
    "status": "in-progress",
    "contactInfo": {
      "recipientName": "my name",
      "phoneNumber": "66666666"
    },
    "destinationPoint": {
      "coordinates": [
        10,
        11
      ],
      "line1": "address one",
      "line2": "address two",
      "city": "my city",
      "state": "state",
      "postalCode": "12354",
      "primary": false
    },
    "startingPoint": {
      "coordinates": [
        5,
        5
      ],
      "line1": "address one",
      "line2": "address two",
      "city": "my city",
      "state": "state",
      "postalCode": "12354",
      "primary": false
    }
  },
  {
    "status": "in-progress",
    "contactInfo": {
      "recipientName": "my name",
      "phoneNumber": "66666666"
    },
    "destinationPoint": {
      "coordinates": [
        10,
        11
      ],
      "line1": "address one",
      "line2": "address two",
      "city": "my city",
      "state": "state",
      "postalCode": "12354",
      "primary": false
    },
    "startingPoint": {
      "coordinates": [
        5,
        5
      ],
      "line1": "address one",
      "line2": "address two",
      "city": "my city",
      "state": "state",
      "postalCode": "12354",
      "primary": false
    }
  },
  {
    "status": "in-progress",
    "contactInfo": {
      "recipientName": "my name",
      "phoneNumber": "66666666"
    },
    "destinationPoint": {
      "coordinates": [
        10,
        11
      ],
      "line1": "address one",
      "line2": "address two",
      "city": "my city",
      "state": "state",
      "postalCode": "12354",
      "primary": false
    },
    "startingPoint": {
      "coordinates": [
        5,
        5
      ],
      "line1": "address one",
      "line2": "address two",
      "city": "my city",
      "state": "state",
      "postalCode": "12354",
      "primary": false
    }
  },
  {
    "status": "in-progress",
    "contactInfo": {
      "recipientName": "my name",
      "phoneNumber": "66666666"
    },
    "destinationPoint": {
      "coordinates": [
        10,
        11
      ],
      "line1": "address one",
      "line2": "address two",
      "city": "my city",
      "state": "state",
      "postalCode": "12354",
      "primary": false
    },
    "startingPoint": {
      "coordinates": [
        5,
        5
      ],
      "line1": "address one",
      "line2": "address two",
      "city": "my city",
      "state": "state",
      "postalCode": "12354",
      "primary": false
    }
  },
  {
    "status": "in-progress",
    "contactInfo": {
      "recipientName": "my name",
      "phoneNumber": "66666666"
    },
    "destinationPoint": {
      "coordinates": [
        10,
        11
      ],
      "line1": "address one",
      "line2": "address two",
      "city": "my city",
      "state": "state",
      "postalCode": "12354",
      "primary": false
    },
    "startingPoint": {
      "coordinates": [
        5,
        5
      ],
      "line1": "address one",
      "line2": "address two",
      "city": "my city",
      "state": "state",
      "postalCode": "12354",
      "primary": false
    }
  },
  {
    "status": "in-progress",
    "contactInfo": {
      "recipientName": "my name",
      "phoneNumber": "66666666"
    },
    "destinationPoint": {
      "coordinates": [
        10,
        11
      ],
      "line1": "address one",
      "line2": "address two",
      "city": "my city",
      "state": "state",
      "postalCode": "12354",
      "primary": false
    },
    "startingPoint": {
      "coordinates": [
        5,
        5
      ],
      "line1": "address one",
      "line2": "address two",
      "city": "my city",
      "state": "state",
      "postalCode": "12354",
      "primary": false
    }
  },
  {
    "status": "in-progress",
    "contactInfo": {
      "recipientName": "my name",
      "phoneNumber": "66666666"
    },
    "destinationPoint": {
      "coordinates": [
        10,
        11
      ],
      "line1": "address one",
      "line2": "address two",
      "city": "my city",
      "state": "state",
      "postalCode": "12354",
      "primary": false
    },
    "startingPoint": {
      "coordinates": [
        5,
        5
      ],
      "line1": "address one",
      "line2": "address two",
      "city": "my city",
      "state": "state",
      "postalCode": "12354",
      "primary": false
    }
  },
  {
    "status": "in-progress",
    "contactInfo": {
      "recipientName": "my name",
      "phoneNumber": "66666666"
    },
    "destinationPoint": {
      "coordinates": [
        10,
        11
      ],
      "line1": "address one",
      "line2": "address two",
      "city": "my city",
      "state": "state",
      "postalCode": "12354",
      "primary": false
    },
    "startingPoint": {
      "coordinates": [
        5,
        5
      ],
      "line1": "address one",
      "line2": "address two",
      "city": "my city",
      "state": "state",
      "postalCode": "12354",
      "primary": false
    }
  },
  {
    "status": "in-progress",
    "contactInfo": {
      "recipientName": "my name",
      "phoneNumber": "66666666"
    },
    "destinationPoint": {
      "coordinates": [
        10,
        11
      ],
      "line1": "address one",
      "line2": "address two",
      "city": "my city",
      "state": "state",
      "postalCode": "12354",
      "primary": false
    },
    "startingPoint": {
      "coordinates": [
        5,
        5
      ],
      "line1": "address one",
      "line2": "address two",
      "city": "my city",
      "state": "state",
      "postalCode": "12354",
      "primary": false
    }
  },
  {
    "status": "in-progress",
    "contactInfo": {
      "recipientName": "my name",
      "phoneNumber": "66666666"
    },
    "destinationPoint": {
      "coordinates": [
        10,
        11
      ],
      "line1": "address one",
      "line2": "address two",
      "city": "my city",
      "state": "state",
      "postalCode": "12354",
      "primary": false
    },
    "startingPoint": {
      "coordinates": [
        5,
        5
      ],
      "line1": "address one",
      "line2": "address two",
      "city": "my city",
      "state": "state",
      "postalCode": "12354",
      "primary": false
    }
  },
  {
    "status": "in-progress",
    "contactInfo": {
      "recipientName": "my name",
      "phoneNumber": "66666666"
    },
    "destinationPoint": {
      "coordinates": [
        10,
        11
      ],
      "line1": "address one",
      "line2": "address two",
      "city": "my city",
      "state": "state",
      "postalCode": "12354",
      "primary": false
    },
    "startingPoint": {
      "coordinates": [
        5,
        5
      ],
      "line1": "address one",
      "line2": "address two",
      "city": "my city",
      "state": "state",
      "postalCode": "12354",
      "primary": false
    }
  },
  {
    "status": "in-progress",
    "contactInfo": {
      "recipientName": "my name",
      "phoneNumber": "66666666"
    },
    "destinationPoint": {
      "coordinates": [
        10,
        11
      ],
      "line1": "address one",
      "line2": "address two",
      "city": "my city",
      "state": "state",
      "postalCode": "12354",
      "primary": false
    },
    "startingPoint": {
      "coordinates": [
        5,
        5
      ],
      "line1": "address one",
      "line2": "address two",
      "city": "my city",
      "state": "state",
      "postalCode": "12354",
      "primary": false
    }
  },
  {
    "status": "in-progress",
    "contactInfo": {
      "recipientName": "my name",
      "phoneNumber": "66666666"
    },
    "destinationPoint": {
      "coordinates": [
        10,
        11
      ],
      "line1": "address one",
      "line2": "address two",
      "city": "my city",
      "state": "state",
      "postalCode": "12354",
      "primary": false
    },
    "startingPoint": {
      "coordinates": [
        5,
        5
      ],
      "line1": "address one",
      "line2": "address two",
      "city": "my city",
      "state": "state",
      "postalCode": "12354",
      "primary": false
    }
  },
  {
    "status": "in-progress",
    "contactInfo": {
      "recipientName": "my name",
      "phoneNumber": "66666666"
    },
    "destinationPoint": {
      "coordinates": [
        10,
        11
      ],
      "line1": "address one",
      "line2": "address two",
      "city": "my city",
      "state": "state",
      "postalCode": "12354",
      "primary": false
    },
    "startingPoint": {
      "coordinates": [
        5,
        5
      ],
      "line1": "address one",
      "line2": "address two",
      "city": "my city",
      "state": "state",
      "postalCode": "12354",
      "primary": false
    }
  },
  {
    "status": "in-progress",
    "contactInfo": {
      "recipientName": "my name",
      "phoneNumber": "66666666"
    },
    "destinationPoint": {
      "coordinates": [
        10,
        11
      ],
      "line1": "address one",
      "line2": "address two",
      "city": "my city",
      "state": "state",
      "postalCode": "12354",
      "primary": false
    },
    "startingPoint": {
      "coordinates": [
        5,
        5
      ],
      "line1": "address one",
      "line2": "address two",
      "city": "my city",
      "state": "state",
      "postalCode": "12354",
      "primary": false
    }
  },
  {
    "status": "in-progress",
    "contactInfo": {
      "recipientName": "my name",
      "phoneNumber": "66666666"
    },
    "destinationPoint": {
      "coordinates": [
        10,
        11
      ],
      "line1": "address one",
      "line2": "address two",
      "city": "my city",
      "state": "state",
      "postalCode": "12354",
      "primary": false
    },
    "startingPoint": {
      "coordinates": [
        5,
        5
      ],
      "line1": "address one",
      "line2": "address two",
      "city": "my city",
      "state": "state",
      "postalCode": "12354",
      "primary": false
    }
  },
  {
    "status": "in-progress",
    "contactInfo": {
      "recipientName": "my name",
      "phoneNumber": "66666666"
    },
    "destinationPoint": {
      "coordinates": [
        10,
        11
      ],
      "line1": "address one",
      "line2": "address two",
      "city": "my city",
      "state": "state",
      "postalCode": "12354",
      "primary": false
    },
    "startingPoint": {
      "coordinates": [
        5,
        5
      ],
      "line1": "address one",
      "line2": "address two",
      "city": "my city",
      "state": "state",
      "postalCode": "12354",
      "primary": false
    }
  },
  {
    "status": "in-progress",
    "contactInfo": {
      "recipientName": "my name",
      "phoneNumber": "66666666"
    },
    "destinationPoint": {
      "coordinates": [
        10,
        11
      ],
      "line1": "address one",
      "line2": "address two",
      "city": "my city",
      "state": "state",
      "postalCode": "12354",
      "primary": false
    },
    "startingPoint": {
      "coordinates": [
        5,
        5
      ],
      "line1": "address one",
      "line2": "address two",
      "city": "my city",
      "state": "state",
      "postalCode": "12354",
      "primary": false
    }
  },
  {
    "status": "in-progress",
    "contactInfo": {
      "recipientName": "my name",
      "phoneNumber": "66666666"
    },
    "destinationPoint": {
      "coordinates": [
        10,
        11
      ],
      "line1": "address one",
      "line2": "address two",
      "city": "my city",
      "state": "state",
      "postalCode": "12354",
      "primary": false
    },
    "startingPoint": {
      "coordinates": [
        5,
        5
      ],
      "line1": "address one",
      "line2": "address two",
      "city": "my city",
      "state": "state",
      "postalCode": "12354",
      "primary": false
    }
  },
  {
    "status": "in-progress",
    "contactInfo": {
      "recipientName": "my name",
      "phoneNumber": "66666666"
    },
    "destinationPoint": {
      "coordinates": [
        10,
        11
      ],
      "line1": "address one",
      "line2": "address two",
      "city": "my city",
      "state": "state",
      "postalCode": "12354",
      "primary": false
    },
    "startingPoint": {
      "coordinates": [
        5,
        5
      ],
      "line1": "address one",
      "line2": "address two",
      "city": "my city",
      "state": "state",
      "postalCode": "12354",
      "primary": false
    }
  },
  {
    "status": "in-progress",
    "contactInfo": {
      "recipientName": "my name",
      "phoneNumber": "66666666"
    },
    "destinationPoint": {
      "coordinates": [
        10,
        11
      ],
      "line1": "address one",
      "line2": "address two",
      "city": "my city",
      "state": "state",
      "postalCode": "12354",
      "primary": false
    },
    "startingPoint": {
      "coordinates": [
        5,
        5
      ],
      "line1": "address one",
      "line2": "address two",
      "city": "my city",
      "state": "state",
      "postalCode": "12354",
      "primary": false
    }
  },
  {
    "status": "in-progress",
    "contactInfo": {
      "recipientName": "my name",
      "phoneNumber": "66666666"
    },
    "destinationPoint": {
      "coordinates": [
        10,
        11
      ],
      "line1": "address one",
      "line2": "address two",
      "city": "my city",
      "state": "state",
      "postalCode": "12354",
      "primary": false
    },
    "startingPoint": {
      "coordinates": [
        5,
        5
      ],
      "line1": "address one",
      "line2": "address two",
      "city": "my city",
      "state": "state",
      "postalCode": "12354",
      "primary": false
    }
  },
  {
    "status": "in-progress",
    "contactInfo": {
      "recipientName": "my name",
      "phoneNumber": "66666666"
    },
    "destinationPoint": {
      "coordinates": [
        10,
        11
      ],
      "line1": "address one",
      "line2": "address two",
      "city": "my city",
      "state": "state",
      "postalCode": "12354",
      "primary": false
    },
    "startingPoint": {
      "coordinates": [
        5,
        5
      ],
      "line1": "address one",
      "line2": "address two",
      "city": "my city",
      "state": "state",
      "postalCode": "12354",
      "primary": false
    }
  },
  {
    "status": "in-progress",
    "contactInfo": {
      "recipientName": "my name",
      "phoneNumber": "66666666"
    },
    "destinationPoint": {
      "coordinates": [
        10,
        11
      ],
      "line1": "address one",
      "line2": "address two",
      "city": "my city",
      "state": "state",
      "postalCode": "12354",
      "primary": false
    },
    "startingPoint": {
      "coordinates": [
        5,
        5
      ],
      "line1": "address one",
      "line2": "address two",
      "city": "my city",
      "state": "state",
      "postalCode": "12354",
      "primary": false
    }
  },
  {
    "status": "in-progress",
    "contactInfo": {
      "recipientName": "my name",
      "phoneNumber": "66666666"
    },
    "destinationPoint": {
      "coordinates": [
        10,
        11
      ],
      "line1": "address one",
      "line2": "address two",
      "city": "my city",
      "state": "state",
      "postalCode": "12354",
      "primary": false
    },
    "startingPoint": {
      "coordinates": [
        5,
        5
      ],
      "line1": "address one",
      "line2": "address two",
      "city": "my city",
      "state": "state",
      "postalCode": "12354",
      "primary": false
    }
  },
  {
    "status": "in-progress",
    "contactInfo": {
      "recipientName": "my name",
      "phoneNumber": "66666666"
    },
    "destinationPoint": {
      "coordinates": [
        10,
        11
      ],
      "line1": "address one",
      "line2": "address two",
      "city": "my city",
      "state": "state",
      "postalCode": "12354",
      "primary": false
    },
    "startingPoint": {
      "coordinates": [
        5,
        5
      ],
      "line1": "address one",
      "line2": "address two",
      "city": "my city",
      "state": "state",
      "postalCode": "12354",
      "primary": false
    }
  },
  {
    "status": "in-progress",
    "contactInfo": {
      "recipientName": "my name",
      "phoneNumber": "66666666"
    },
    "destinationPoint": {
      "coordinates": [
        10,
        11
      ],
      "line1": "address one",
      "line2": "address two",
      "city": "my city",
      "state": "state",
      "postalCode": "12354",
      "primary": false
    },
    "startingPoint": {
      "coordinates": [
        5,
        5
      ],
      "line1": "address one",
      "line2": "address two",
      "city": "my city",
      "state": "state",
      "postalCode": "12354",
      "primary": false
    }
  },
  {
    "status": "in-progress",
    "contactInfo": {
      "recipientName": "my name",
      "phoneNumber": "66666666"
    },
    "destinationPoint": {
      "coordinates": [
        10,
        11
      ],
      "line1": "address one",
      "line2": "address two",
      "city": "my city",
      "state": "state",
      "postalCode": "12354",
      "primary": false
    },
    "startingPoint": {
      "coordinates": [
        5,
        5
      ],
      "line1": "address one",
      "line2": "address two",
      "city": "my city",
      "state": "state",
      "postalCode": "12354",
      "primary": false
    }
  },
  {
    "status": "in-progress",
    "contactInfo": {
      "recipientName": "my name",
      "phoneNumber": "66666666"
    },
    "destinationPoint": {
      "coordinates": [
        10,
        11
      ],
      "line1": "address one",
      "line2": "address two",
      "city": "my city",
      "state": "state",
      "postalCode": "12354",
      "primary": false
    },
    "startingPoint": {
      "coordinates": [
        5,
        5
      ],
      "line1": "address one",
      "line2": "address two",
      "city": "my city",
      "state": "state",
      "postalCode": "12354",
      "primary": false
    }
  },
  {
    "status": "in-progress",
    "contactInfo": {
      "recipientName": "my name",
      "phoneNumber": "66666666"
    },
    "destinationPoint": {
      "coordinates": [
        10,
        11
      ],
      "line1": "address one",
      "line2": "address two",
      "city": "my city",
      "state": "state",
      "postalCode": "12354",
      "primary": false
    },
    "startingPoint": {
      "coordinates": [
        5,
        5
      ],
      "line1": "address one",
      "line2": "address two",
      "city": "my city",
      "state": "state",
      "postalCode": "12354",
      "primary": false
    }
  },
  {
    "status": "in-progress",
    "contactInfo": {
      "recipientName": "my name",
      "phoneNumber": "66666666"
    },
    "destinationPoint": {
      "coordinates": [
        10,
        11
      ],
      "line1": "address one",
      "line2": "address two",
      "city": "my city",
      "state": "state",
      "postalCode": "12354",
      "primary": false
    },
    "startingPoint": {
      "coordinates": [
        5,
        5
      ],
      "line1": "address one",
      "line2": "address two",
      "city": "my city",
      "state": "state",
      "postalCode": "12354",
      "primary": false
    }
  },
  {
    "status": "in-progress",
    "contactInfo": {
      "recipientName": "my name",
      "phoneNumber": "66666666"
    },
    "destinationPoint": {
      "coordinates": [
        10,
        11
      ],
      "line1": "address one",
      "line2": "address two",
      "city": "my city",
      "state": "state",
      "postalCode": "12354",
      "primary": false
    },
    "startingPoint": {
      "coordinates": [
        5,
        5
      ],
      "line1": "address one",
      "line2": "address two",
      "city": "my city",
      "state": "state",
      "postalCode": "12354",
      "primary": false
    }
  },
  {
    "status": "in-progress",
    "contactInfo": {
      "recipientName": "my name",
      "phoneNumber": "66666666"
    },
    "destinationPoint": {
      "coordinates": [
        10,
        11
      ],
      "line1": "address one",
      "line2": "address two",
      "city": "my city",
      "state": "state",
      "postalCode": "12354",
      "primary": false
    },
    "startingPoint": {
      "coordinates": [
        5,
        5
      ],
      "line1": "address one",
      "line2": "address two",
      "city": "my city",
      "state": "state",
      "postalCode": "12354",
      "primary": false
    }
  },
  {
    "status": "in-progress",
    "contactInfo": {
      "recipientName": "my name",
      "phoneNumber": "66666666"
    },
    "destinationPoint": {
      "coordinates": [
        10,
        11
      ],
      "line1": "address one",
      "line2": "address two",
      "city": "my city",
      "state": "state",
      "postalCode": "12354",
      "primary": false
    },
    "startingPoint": {
      "coordinates": [
        5,
        5
      ],
      "line1": "address one",
      "line2": "address two",
      "city": "my city",
      "state": "state",
      "postalCode": "12354",
      "primary": false
    }
  },
  {
    "status": "in-progress",
    "contactInfo": {
      "recipientName": "my name",
      "phoneNumber": "66666666"
    },
    "destinationPoint": {
      "coordinates": [
        10,
        11
      ],
      "line1": "address one",
      "line2": "address two",
      "city": "my city",
      "state": "state",
      "postalCode": "12354",
      "primary": false
    },
    "startingPoint": {
      "coordinates": [
        5,
        5
      ],
      "line1": "address one",
      "line2": "address two",
      "city": "my city",
      "state": "state",
      "postalCode": "12354",
      "primary": false
    }
  },
  {
    "status": "in-progress",
    "contactInfo": {
      "recipientName": "my name",
      "phoneNumber": "66666666"
    },
    "destinationPoint": {
      "coordinates": [
        10,
        11
      ],
      "line1": "address one",
      "line2": "address two",
      "city": "my city",
      "state": "state",
      "postalCode": "12354",
      "primary": false
    },
    "startingPoint": {
      "coordinates": [
        5,
        5
      ],
      "line1": "address one",
      "line2": "address two",
      "city": "my city",
      "state": "state",
      "postalCode": "12354",
      "primary": false
    }
  },
  {
    "status": "in-progress",
    "contactInfo": {
      "recipientName": "my name",
      "phoneNumber": "66666666"
    },
    "destinationPoint": {
      "coordinates": [
        10,
        11
      ],
      "line1": "address one",
      "line2": "address two",
      "city": "my city",
      "state": "state",
      "postalCode": "12354",
      "primary": false
    },
    "startingPoint": {
      "coordinates": [
        5,
        5
      ],
      "line1": "address one",
      "line2": "address two",
      "city": "my city",
      "state": "state",
      "postalCode": "12354",
      "primary": false
    }
  },
  {
    "status": "in-progress",
    "contactInfo": {
      "recipientName": "my name",
      "phoneNumber": "66666666"
    },
    "destinationPoint": {
      "coordinates": [
        10,
        11
      ],
      "line1": "address one",
      "line2": "address two",
      "city": "my city",
      "state": "state",
      "postalCode": "12354",
      "primary": false
    },
    "startingPoint": {
      "coordinates": [
        5,
        5
      ],
      "line1": "address one",
      "line2": "address two",
      "city": "my city",
      "state": "state",
      "postalCode": "12354",
      "primary": false
    }
  },
  {
    "status": "in-progress",
    "contactInfo": {
      "recipientName": "my name",
      "phoneNumber": "66666666"
    },
    "destinationPoint": {
      "coordinates": [
        10,
        11
      ],
      "line1": "address one",
      "line2": "address two",
      "city": "my city",
      "state": "state",
      "postalCode": "12354",
      "primary": false
    },
    "startingPoint": {
      "coordinates": [
        5,
        5
      ],
      "line1": "address one",
      "line2": "address two",
      "city": "my city",
      "state": "state",
      "postalCode": "12354",
      "primary": false
    }
  },
  {
    "status": "in-progress",
    "contactInfo": {
      "recipientName": "my name",
      "phoneNumber": "66666666"
    },
    "destinationPoint": {
      "coordinates": [
        10,
        11
      ],
      "line1": "address one",
      "line2": "address two",
      "city": "my city",
      "state": "state",
      "postalCode": "12354",
      "primary": false
    },
    "startingPoint": {
      "coordinates": [
        5,
        5
      ],
      "line1": "address one",
      "line2": "address two",
      "city": "my city",
      "state": "state",
      "postalCode": "12354",
      "primary": false
    }
  },
  {
    "status": "in-progress",
    "contactInfo": {
      "recipientName": "my name",
      "phoneNumber": "66666666"
    },
    "destinationPoint": {
      "coordinates": [
        10,
        11
      ],
      "line1": "address one",
      "line2": "address two",
      "city": "my city",
      "state": "state",
      "postalCode": "12354",
      "primary": false
    },
    "startingPoint": {
      "coordinates": [
        5,
        5
      ],
      "line1": "address one",
      "line2": "address two",
      "city": "my city",
      "state": "state",
      "postalCode": "12354",
      "primary": false
    }
  },
  {
    "status": "in-progress",
    "contactInfo": {
      "recipientName": "my name",
      "phoneNumber": "66666666"
    },
    "destinationPoint": {
      "coordinates": [
        10,
        11
      ],
      "line1": "address one",
      "line2": "address two",
      "city": "my city",
      "state": "state",
      "postalCode": "12354",
      "primary": false
    },
    "startingPoint": {
      "coordinates": [
        5,
        5
      ],
      "line1": "address one",
      "line2": "address two",
      "city": "my city",
      "state": "state",
      "postalCode": "12354",
      "primary": false
    }
  },
  {
    "status": "in-progress",
    "contactInfo": {
      "recipientName": "my name",
      "phoneNumber": "66666666"
    },
    "destinationPoint": {
      "coordinates": [
        10,
        11
      ],
      "line1": "address one",
      "line2": "address two",
      "city": "my city",
      "state": "state",
      "postalCode": "12354",
      "primary": false
    },
    "startingPoint": {
      "coordinates": [
        5,
        5
      ],
      "line1": "address one",
      "line2": "address two",
      "city": "my city",
      "state": "state",
      "postalCode": "12354",
      "primary": false
    }
  },
  {
    "status": "in-progress",
    "contactInfo": {
      "recipientName": "my name",
      "phoneNumber": "66666666"
    },
    "destinationPoint": {
      "coordinates": [
        10,
        11
      ],
      "line1": "address one",
      "line2": "address two",
      "city": "my city",
      "state": "state",
      "postalCode": "12354",
      "primary": false
    },
    "startingPoint": {
      "coordinates": [
        5,
        5
      ],
      "line1": "address one",
      "line2": "address two",
      "city": "my city",
      "state": "state",
      "postalCode": "12354",
      "primary": false
    }
  },
  {
    "status": "in-progress",
    "contactInfo": {
      "recipientName": "my name",
      "phoneNumber": "66666666"
    },
    "destinationPoint": {
      "coordinates": [
        10,
        11
      ],
      "line1": "address one",
      "line2": "address two",
      "city": "my city",
      "state": "state",
      "postalCode": "12354",
      "primary": false
    },
    "startingPoint": {
      "coordinates": [
        5,
        5
      ],
      "line1": "address one",
      "line2": "address two",
      "city": "my city",
      "state": "state",
      "postalCode": "12354",
      "primary": false
    }
  },
  {
    "status": "in-progress",
    "contactInfo": {
      "recipientName": "my name",
      "phoneNumber": "66666666"
    },
    "destinationPoint": {
      "coordinates": [
        10,
        11
      ],
      "line1": "address one",
      "line2": "address two",
      "city": "my city",
      "state": "state",
      "postalCode": "12354",
      "primary": false
    },
    "startingPoint": {
      "coordinates": [
        5,
        5
      ],
      "line1": "address one",
      "line2": "address two",
      "city": "my city",
      "state": "state",
      "postalCode": "12354",
      "primary": false
    }
  }
]